PLZ;ORT;Kanton;Latitude;Longitude
2743;Eschert;BE;47.263485;7.40423
1007;Lausanne;VD;46.519595;6.63233
2744;Belprahon;BE;47.288594;7.404268
2747;Seehof;BE;47.301549;7.517976
2745;Grandval;BE;47.283523;7.425376
2746;Crémines;BE;47.28535726;7.451993888
2762;Roches BE;BE;47.301706;7.37378
2832;Rebeuvelier;JU;47.320793;7.417931
2830;Courrendlin;JU;47.33466568;7.374280315
2800;Delémont;JU;47.37510076;7.332924353
2802;Develier;JU;47.3647168;7.281501206
2803;Bourrignon;JU;47.392968;7.250756
2805;Soyhières;JU;47.398709;7.365186
2806;Mettembert;JU;47.396686;7.324817
2807;Pleigne;JU;47.415442;7.30973
1008;Prilly;VD;46.53889572;6.604973569
2812;Movelier;JU;47.41042;7.317292
2813;Ederswiler;JU;47.421108;7.333272
2814;Roggenburg;BL;47.428278;7.354321
2822;Courroux;JU;47.3691949;7.393027637
2823;Courcelon;JU;47.36166;7.390955
2824;Vicques;JU;47.35090887;7.427027963
2825;Courchapoix;JU;47.348062;7.451775
2826;Corban;JU;47.347203;7.472348
1009;Pully;VD;46.52153817;6.669496486
2827;Mervelier;JU;47.331277;7.55302
2828;Montsevelier;JU;47.356951;7.511823
2829;Vermes;JU;47.322108;7.476983
2842;Rossemaison;JU;47.342631;7.343595
2843;Châtillon JU;JU;47.319933;7.340727
2852;Courtételle;JU;47.33094152;7.317661918
2853;Courfaivre;JU;47.32992417;7.279748788
2854;Bassecourt;JU;47.3351347;7.240782485
2855;Glovelier;JU;47.32692941;7.18444471
2856;Boécourt;JU;47.36152824;7.222935489
1010;Lausanne;VD;46.55204314;6.652307803
2857;Montavon;JU;47.37232;7.236435
2863;Undervelier;JU;47.300865;7.222253
2864;Soulce;JU;47.297873;7.279942
2873;Saulcy;JU;47.302493;7.153539
2874;Saint-Brais;JU;47.302961;7.084949
2875;Montfaucon;JU;47.273616;7.070246
2877;Le Bémont JU;JU;47.259264;7.039008
1011;Lausanne;VD;46.525429;6.64295
2882;Saint-Ursanne;JU;47.357747;7.15331
2883;Montmelon;JU;47.358099;7.171072
2884;Montenol;JU;47.349739;7.143755
2885;Epauvillers;JU;47.337305;7.116267
2886;Epiquerez;JU;47.326102;7.068824
2887;Soubey;JU;47.306854;7.045637
2888;Seleute;JU;47.362946;7.109186
1012;Lausanne;VD;46.52631;6.65689
2889;Ocourt;JU;47.354908;7.073021
2950;Courgenay;JU;47.39294641;7.121869799
2900;Porrentruy;JU;47.42129875;7.071013933
2902;Fontenais;JU;47.38773237;7.076817649
2903;Villars-sur-Font;JU;47.385514;7.080999
2904;Bressaucourt;JU;47.383185;7.039055
2905;Courtedoux;JU;47.412724;7.036178
2906;Chevenez;JU;47.39152265;6.992897767
2907;Rocourt;JU;47.385756;6.955768
2908;Grandfontaine;JU;47.39147;6.933637
2912;Roche-d'Or;JU;47.365451;6.954115
2914;Damvant;JU;47.36807;6.897797
2915;Bure;JU;47.303675;9.457086
2916;Fahy;JU;47.417426;6.952857
1014;Lausanne Adm cant;VD;46.519588;6.63234
2922;Courchavon;JU;47.436636;7.04556
2923;Courtemaîche;JU;47.458188;7.046949
2924;Montignez;JU;47.48384;7.057063
2925;Buix;JU;47.477201;7.028201
2926;Boncourt;JU;47.48797856;7.007613253
2932;Coeuve;JU;47.453325;7.095441
2935;Beurnevésin;JU;47.489202;7.129588
1015;Lausanne;VD;46.55204314;6.652307803
2942;Alle;JU;47.42841365;7.126248602
2943;Vendlincourt;JU;47.451931;7.14873
2944;Bonfol;JU;47.47584614;7.156806057
2946;Miécourt;JU;47.431234;7.174225
2947;Charmoille;JU;47.426859;7.212295
2952;Cornol;JU;47.40475367;7.163135059
1753;Matran;FR;46.78391406;7.091004447
1754;Rosé;FR;46.781159;7.096297681
1756;Onnens FR;FR;46.773683;7.022437
1757;Noréaz;FR;46.80221222;7.03654691
1690;Villaz-Saint-Pierre;FR;46.719884;6.958966
1762;Givisiez;FR;46.81272758;7.125580288
1772;Grolley;FR;46.83472235;7.065876494
1773;Léchelles;FR;46.833119;7.023145
1774;Cousset;FR;46.818335;6.977285
1776;Montagny FR;FR;46.816224;6.97711941
1795;Courlevon;FR;46.891513;7.108923
1796;Courgevaux;FR;46.905133;7.103852
1797;Münchenwiler;BE;46.907758;7.123924
1794;Salvenach;FR;46.909391;7.151784
1793;Jeuss;FR;46.903673;7.167655
1792;Cordast;FR;46.862963;7.149826414
1791;Courtaman;FR;46.871941;7.131064
1788;Bas-Vully;FR;46.953854;7.09891
1789;Lugnorre;FR;46.95;7.069387
1782;Belfaux;FR;46.82873276;7.095040843
1783;Pensier;FR;46.859837;7.15878
1784;Courtepin;FR;46.86430927;7.126277386
1785;Cressier FR;FR;46.897081;7.13546
1786;Sugiez;FR;46.97103;7.110598424
1000;Lausanne;VD;46.55204314;6.652307803
1787;Môtier (Vully);FR;46.941564;7.049398
1800;Vevey;VD;46.46423152;6.84804687
1801;Le Mont-Pèlerin;VD;46.48211;6.83138
1808;Monts-de-Corsier;VD;46.503485;6.88124
1809;Fenil-sur-Corsier;VD;46.482776;6.864987
1802;Corseaux;VD;46.47104482;6.828272825
1803;Chardonne;VD;46.48860475;6.821603523
1804;Corsier-sur-Vevey;VD;46.49441265;6.870999591
1805;Jongny;VD;46.48761295;6.846544367
1806;Saint-Légier-La Chiésaz;VD;46.463956;6.88207623
1807;Blonay;VD;46.47786962;6.921971139
1071;Rivaz;VD;46.48432324;6.780026325
1814;La Tour-de-Peilz;VD;46.45490364;6.869351932
1815;Clarens;VD;46.440945;6.890805
1816;Chailly-Montreux;VD;46.449077;6.89164
1817;Brent;VD;46.457725;6.9011
1820;Montreux;VD;46.45179386;6.940790207
1822;Chernex;VD;46.443545;6.911375
1823;Glion;VD;46.414038;6.924678029
1824;Caux;VD;46.433459;6.932099393
1832;Villard-sur-Chamby;VD;46.44888;6.91388
1669;Sciernes-d'Albeuve;FR;46.482967;7.053598615
1658;La Tine;VD;46.4661;7.063937
1660;Les Moulins;VD;46.447343;7.137467
1659;Flendruz;VD;46.499224;7.214277
1833;Les Avants;VD;46.449441;6.95158215
1844;Villeneuve VD;VD;46.403846;6.968948
1847;Rennaz;VD;46.375443;6.916829
1845;Noville;VD;46.38302311;6.896133477
1846;Chessel;VD;46.349049;6.894606
1852;Roche VD;VD;46.356976;6.843875
1853;Yvorne;VD;46.338129;6.95034
1854;Leysin;VD;46.35253326;7.011075089
1867;St-Triphon;VD;46.295976;7.020185394
1860;Aigle;VD;46.31503033;6.972387699
1856;Corbeyrier;VD;46.360438;6.973547
1862;La Comballaz;VD;46.383669;7.059209577
1866;La Forclaz VD;VD;46.351873;7.071397
1884;Huémoz;VD;46.280989;7.008927838
1863;Le Sépey;VD;46.367055;7.048468751
1864;Vers-l'Eglise;VD;46.353724;7.131035
1865;Les Diablerets;VD;46.293055;7.231071452
1868;Collombey;VS;46.263243;6.952067357
1870;Monthey;VS;46.24040331;6.915184028
1871;Choëx;VS;46.238503;6.954794
1872;Troistorrents;VS;46.23282125;6.885230969
1873;Val-d'Illiez;VS;46.19170166;6.888940463
1874;Champéry;VS;46.15879312;6.845827552
1875;Morgins;VS;46.232878;6.849532594
1880;Bex;VD;46.25561085;7.088966819
1882;Les Posses-sur-Bex;VD;46.279418;7.094726
1885;Chesières;VD;46.299236;7.055851484
1890;Saint-Maurice;VS;46.198071;7.009492
1891;Vérossaz;VS;46.20116;6.96658
1869;Massongex;VS;46.23452344;6.982444285
1895;Vionnaz;VS;46.30775927;6.871283566
1897;Les Evouettes;VS;46.367655;6.859508
1899;Torgon;VS;46.320309;6.87658
1892;Lavey-Village;VD;46.199861;7.042982957
1893;Collombey-Muraz;VS;46.279117;6.926319
1896;Vouvry;VS;46.33596532;6.849174152
1898;Saint-Gingolph;VS;46.370151;6.804453
1902;Evionnaz;VS;46.1482099;6.948129142
1903;Collonges;VS;46.173387;7.050894
1904;Vernayaz;VS;46.13804458;7.031867373
1905;Dorénaz;VS;46.1511;7.057486
1906;Charrat;VS;46.12133597;7.136734985
1907;Saxon;VS;46.13625977;7.184290081
1908;Riddes;VS;46.14301564;7.237994539
1912;Leytron;VS;46.20019582;7.155872524
1911;Ovronnaz;VS;46.198505;7.165307297
1913;Saillon;VS;46.17749787;7.158664249
1914;Isérables;VS;46.149152;7.259091
1918;La Tzoumaz;VS;46.144805;7.232991
1955;Chamoson;VS;46.2150441;7.197060427
1957;Ardon;VS;46.23006556;7.237855037
1920;Martigny;VS;46.10722952;7.080832532
1921;Martigny-Croix;VS;46.082144;7.100299539
1923;Le Trétien;VS;46.119519;6.998923968
1925;Le Châtelard VS;VS;46.071529;6.946639
1927;Chemin;VS;46.077431;7.102810005
1929;Trient;VS;46.039548;6.998798
1928;Ravoire;VS;46.095956;7.044956
1922;Salvan;VS;46.11027124;6.959787731
1926;Fully;VS;46.15752759;7.111743582
1932;Bovernier;VS;46.06419;7.082431
1947;Versegères;VS;46.066042;7.233223
1941;Vollèges;VS;46.092184;7.156268
1942;Levron;VS;47.512984;9.266452
1948;Lourtier;VS;46.033925;7.294589825
1945;Liddes;VS;45.980234;7.188409
1946;Bourg-Saint-Pierre;VS;45.923083;7.210719
1943;Praz-de-Fort;VS;45.980514;7.140611582
1944;La Fouly VS;VS;45.916726;7.104615
1933;Sembrancher;VS;46.06937426;7.145649365
1934;Le Châble VS;VS;46.067126;7.215096587
1936;Verbier;VS;46.100141;7.225280581
1937;Orsières;VS;45.97225247;7.101397761
1938;Champex-Lac;VS;46.036265;7.113064917
1950;Sion;VS;46.23043627;7.36598628
1951;Sion;VS;46.228091;7.358857
1975;St-Séverin;VS;50.530128;5.41122
1976;Erde;VS;46.258117;7.30761187
1971;Grimisuat;VS;46.25596531;7.380859263
1974;Arbaz;VS;46.298611;7.375556
1961;Vernamiège;VS;46.21101;7.434863
1973;Nax;VS;46.207798;7.47582
1968;Mase;VS;46.193562;7.458064
1969;Saint-Martin VS;VS;46.158064;7.457268
1981;Vex;VS;46.19685113;7.391049559
1982;Euseigne;VS;46.16153;7.414289686
1984;Les Haudères;VS;46.083466;7.519590746
1986;Arolla;VS;46.035958;7.483709605
1985;La Sage;VS;46.098297;7.515359
1987;Hérémence;VS;46.08877181;7.395633307
1988;Les Collons;VS;46.181429;7.371336
1991;Salins;VS;46.20762392;7.35367564
1992;Les Agettes;VS;46.199086;7.368009
1993;Veysonnaz;VS;46.19722116;7.337975263
1997;Siviez (Nendaz);VS;46.136053;7.315865
1996;Fey (Nendaz);VS;46.152039;7.283129975
1994;Aproz (Nendaz);VS;46.198447;7.318098208
1962;Pont-de-la-Morge;VS;46.224655;7.30919
1963;Vétroz;VS;46.22582799;7.270570814
1964;Conthey;VS;46.27249954;7.254728705
1965;Savièse;VS;46.30934246;7.311391673
1966;Ayent;VS;46.32795929;7.41023662
1967;Bramois;VS;46.233583;7.398838677
1983;Evolène;VS;46.04978939;7.509352629
1972;Anzère;VS;46.296981;7.400421
2000;Neuchâtel;NE;47.00942042;6.93809901
2004;Neuchâtel 4;NE;46.988228;6.893777
2007;Neuchâtel 7;NE;46.988419;6.894149
2008;Neuchâtel;NE;46.990335;6.931085
2009;Neuchâtel 9;NE;46.988419;6.894149
2001;Neuchâtel 1;NE;46.988228;6.893777
2002;Neuchâtel 2;NE;46.988228;6.893777
2003;Neuchâtel 3;NE;46.988228;6.893777
2006;Neuchâtel 6;NE;46.988228;6.893777
2012;Auvernier;NE;46.9775002;6.878685848
2013;Colombier NE;NE;46.96958;6.860917
2014;Bôle;NE;46.96887005;6.837130413
2015;Areuse;NE;46.957225;6.857165
2016;Cortaillod;NE;46.94400873;6.847917012
2017;Boudry;NE;46.95311398;6.807746781
2022;Bevaix;NE;46.93116297;6.804130296
2023;Gorgier;NE;46.92424723;6.765055642
2024;Saint-Aubin-Sauges;NE;46.89986;6.755201
2025;Chez-le-Bart;NE;46.900382;6.782803345
2028;Vaumarcus;NE;46.873294;6.745425
2034;Peseux;NE;46.99555216;6.889489285
2035;Corcelles-Cormondrèche;NE;46.985117;6.875569
2036;Cormondrèche;NE;46.98055;6.869562
2042;Valangin;NE;46.953292;6.902546
2043;Boudevilliers;NE;47.031;6.881124
2046;Fontaines NE;NE;47.060726;6.874298
2052;Fontainemelon;NE;47.05912147;6.883783852
2053;Cernier;NE;47.07618452;6.900620029
2054;Chézard-Saint-Martin;NE;47.072854;6.925595
2056;Dombresson;NE;47.08449713;6.953386244
2057;Villiers;NE;47.089123;6.993208
2058;Le Pâquier NE;NE;47.106986;6.989688
2063;Vilars NE;NE;47.026029;6.930508
2065;Savagnier;NE;47.050346;6.956586
2067;Chaumont;NE;47.012327;6.94971554
2068;Hauterive NE;NE;47.015268;6.922689
2072;Saint-Blaise;NE;47.024492;6.988657
2073;Enges;NE;47.064741;7.009513
2074;Marin-Epagnier;NE;47.00926959;7.012101025
3238;Gals;BE;47.02784;7.0739
2087;Cornaux;NE;47.032614;7.013854
2088;Cressier NE;NE;47.050519;7.024022
2318;Brot-Plamboz;NE;46.984783;6.750701
2103;Noiraigue;NE;46.953189;6.724971
2105;Travers;NE;46.94865533;6.677860842
2108;Couvet;NE;46.9340283;6.630536399
2112;Môtiers NE;NE;46.903988;6.562438
2113;Boveresse;NE;46.928314;6.588505
2114;Fleurier;NE;46.89522306;6.589829271
2115;Buttes;NE;46.88356778;6.535018678
2117;La Côte-aux-Fées;NE;46.86310393;6.487510121
2123;Saint-Sulpice NE;NE;46.920936;6.545915
2406;La Brévine;NE;46.96821598;6.582748686
2126;Les Verrières;NE;46.91495977;6.474972781
2127;Les Bayards;NE;47.540912;8.577898
2149;Champ-du-Moulin;NE;46.960221;6.757977
2124;Les Sagnettes;NE;46.938641;6.593202
2116;Mont-de-Buttes;NE;46.877765;6.510081
1454;La Vraconnaz;VD;46.841718;6.482612
2019;Chambrelien;NE;46.986265;6.803973
2037;Montmollin;NE;47.000457;6.831644
2206;Les Geneveys-sur-Coffrane;NE;47.021641;6.847644
2207;Coffrane;NE;47.009363;6.850036
2208;Les Hauts-Geneveys;NE;47.050709;6.863913
2300;La Chaux-de-Fonds;NE;47.11016677;6.833384097
2302;La Chaux-de-Fonds;NE;47.11016677;6.833384097
2303;La Chaux-de-Fonds;NE;47.11016677;6.833384097
2306;La Chaux-de-Fonds;NE;47.11016677;6.833384097
2301;La Chaux-de-Fonds;NE;47.11016677;6.833384097
2304;La Chaux-de-Fonds;NE;47.11016677;6.833384097
2316;Petit-Martel;NE;46.997312;6.730192
2338;Les Emibois;JU;47.223004;6.986145
2314;La Sagne;NE;47.047069;6.801457
2322;Le Crêt-du-Locle;NE;47.077867;6.783163
2325;Les Planchettes;NE;47.107605;6.768187
2333;La Ferrière;BE;47.143308;6.893077
2336;Les Bois;JU;47.17950002;6.898250591
2400;Le Locle;NE;47.05317789;6.748155053
2405;La Chaux-du-Milieu;NE;47.005931;6.694585
2414;Le Cerneux-Péquignot;NE;47.013594;6.666785
2416;Les Brenets;NE;47.07480371;6.724766959
2500;Biel BE;BE;47.14706;7.29099
2512;Tüscherz-Alfermée;BE;47.122351;7.197346
2513;Twann;BE;47.10312036;7.160191466
2514;Ligerz;BE;47.089107;7.144994
2515;Prêles;BE;47.150809;7.122924
2516;Lamboing;BE;47.12716181;7.155651705
2517;Diesse;BE;47.118193;7.117711
2518;Nods;BE;47.121357;7.083118
2520;La Neuveville;BE;47.07530391;7.101651227
2523;Lignières;NE;47.09123514;7.050632801
2525;Le Landeron;NE;47.06438976;7.057487923
2532;Magglingen/Macolin;BE;47.141664;7.218417
2533;Evilard;BE;47.14558164;7.220986745
2534;Orvin;BE;47.15624744;7.193119944
2535;Frinvillier;BE;47.169215;7.257512
2536;Plagne;BE;47.188382;7.276413
2537;Vauffelin;BE;47.185467;7.29684
2538;Romont BE;BE;47.196888;7.30166
1001;Lausanne;VD;46.519595;6.63233
2540;Grenchen;SO;47.19718138;7.387529706
2542;Pieterlen;BE;47.17387013;7.328008235
2543;Lengnau BE;BE;47.181247;7.363152
2544;Bettlach;SO;47.20855135;7.418841127
2545;Selzach;SO;47.21723252;7.448396218
2552;Orpund;BE;47.14180394;7.303118574
2553;Safnern;BE;47.15230355;7.321921064
2554;Meinisberg;BE;47.1614154;7.352668302
2555;Brügg;BE;47.126608;7.277114
2556;Scheuren;BE;47.121929;7.314355
2557;Studen;BE;47.109917;7.298819
2558;Aegerten;BE;47.11714427;7.285088747
2560;Nidau;BE;47.12434461;7.240867042
2562;Port;BE;47.11411101;7.258903277
2563;Ipsach;BE;47.11504594;7.231822697
2564;Bellmund;BE;47.10287767;7.243185447
2565;Jens;BE;47.096909;7.267667
2572;Sutz-Lattrigen;BE;47.084052;7.212937
2575;Täuffelen;BE;47.06527338;7.197813569
2576;Lüscherz;BE;47.043249;7.154039
2577;Siselen;BE;47.017191;7.178946
3237;Brüttelen;BE;47.023031;7.151076
2603;Péry;BE;47.19869629;7.263305853
2604;La Heutte;BE;47.188501;7.218523
2605;Sonceboz-Sombeval;BE;47.19153794;7.178470464
2606;Corgémont;BE;47.19107213;7.138583535
2607;Cortébert;BE;47.174833;7.107801
2608;Courtelary;BE;47.1764537;7.072653666
2610;Saint-Imier;BE;47.151094;6.988854
1002;Lausanne;VD;46.519595;6.63233
2612;Cormoret;BE;47.164468;7.046914
2613;Villeret;BE;47.16237;7.022792
2615;Sonvilier;BE;47.138715;6.952242
2616;Renan BE;BE;47.11319;6.869005
2710;Tavannes;BE;47.22136743;7.183779029
1003;Lausanne;VD;46.55204314;6.652307803
2712;Le Fuet;BE;47.243388;7.18281
2714;Le Prédame;JU;47.257435;7.131295
2717;Fornet-Dessous;BE;47.284904;7.182592
2718;Fornet-Dessus;JU;47.278861;7.104636
2716;Sornetan;BE;47.27114;7.217187
2713;Bellelay;BE;47.268483;7.166734561
1004;Lausanne;VD;46.519595;6.63233
2720;Tramelan;BE;47.22724064;7.09680167
2722;Les Reussilles;BE;47.22462;7.083355
2723;Mont-Tramelan;BE;47.202772;7.064316
2345;Les Breuleux;JU;47.20518201;7.002556184
2340;Le Noirmont;JU;47.213662;6.944124625
1005;Lausanne;VD;46.519595;6.63233
2350;Saignelégier;JU;47.2458312;7.019992335
2353;Les Pommerats;JU;47.273598;6.986217
2354;Goumois;JU;47.267305;6.959292
2732;Reconvilier;BE;47.22666441;7.222982881
2733;Pontenet;BE;47.249666;7.253908
2735;Malleray-Bévilard;BE;47.232017;7.285008
1006;Lausanne;VD;46.519595;6.63233
2736;Sorvilier;BE;47.233042;7.306863
2738;Court;BE;47.23975518;7.359240742
2740;Moutier;BE;47.27738119;7.361671272
2742;Perrefitte;BE;47.278215;7.321825
2748;Souboz;BE;47.273817;7.255861
2953;Fregiécourt-Pleuj;JU;47.40891;7.192515
2954;Asuel;JU;47.390934;7.205187
1018;Lausanne;VD;46.55204314;6.652307803
1020;Renens VD;VD;46.535299;6.593655
3000;Bern;BE;46.94761344;7.406455946
1022;Chavannes-près-Renens;VD;46.527979;6.573672
1023;Crissier;VD;46.5584811;6.577309138
1024;Ecublens VD;VD;46.52719;6.550683
1025;Saint-Sulpice VD;VD;46.512148;6.539072
3001;Bern;BE;46.948021;7.44821
3002;Bern Postfinance;BE;46.948021;7.44821
3003;Bern;BE;46.948021;7.44821
3004;Bern;BE;46.94761344;7.406455946
3005;Bern;BE;46.93998;7.44864
3006;Bern;BE;46.945221;7.46987
3007;Bern;BE;46.93861;7.43985
3008;Bern;BE;46.94363;7.41822
3010;Bern;BE;46.94761344;7.406455946
3011;Bern;BE;46.94761344;7.406455946
3012;Bern;BE;46.948232;7.44001
3013;Bern;BE;46.948232;7.44001
3014;Bern;BE;46.94761344;7.406455946
3015;Bern;BE;46.948232;7.44001
3018;Bern;BE;46.94761344;7.406455946
3019;Bern;BE;46.931272;7.337686
3020;Bern;BE;46.943758;7.349005
3027;Bern;BE;46.94761344;7.406455946
3095;Spiegel b. Bern;BE;46.9209;7.42556
1026;Echandens-Denges;VD;46.519399;6.533801
1027;Lonay;VD;46.52986794;6.516933912
3032;Hinterkappelen;BE;46.966266;7.388907288
3033;Wohlen b. Bern;BE;46.982617;7.341256
3034;Murzelen;BE;46.98164;7.316445
3035;Frieswil;BE;46.978476;7.265462678
3036;Detligen;BE;47.001705;7.27331
3037;Herrenschwanden;BE;46.97803;7.41809
3038;Kirchlindach;BE;46.99846535;7.415786619
1028;Préverenges;VD;46.51605698;6.529001827
3042;Ortschwaben;BE;46.991721;7.402445
3043;Uettligen;BE;46.980313;7.380972113
3049;Säriswil;BE;46.9917551;7.3342661
3045;Meikirch;BE;47.00397;7.365878
3046;Wahlendorf;BE;47.004169;7.336935
3047;Bremgarten b. Bern;BE;46.974376;7.434629
3048;Worblaufen;BE;46.948693;7.474210087
3052;Zollikofen;BE;46.99423009;7.452428036
3053;Münchenbuchsee;BE;47.01814848;7.448593695
3054;Schüpfen;BE;47.03577043;7.374668975
3063;Ittigen;BE;46.98063365;7.474518407
3065;Bolligen;BE;46.98316037;7.513636392
3066;Stettlen;BE;46.95663673;7.522125568
3067;Boll;BE;46.945895;7.552048984
3068;Utzigen;BE;46.952372;7.576668
3072;Ostermundigen;BE;46.95589739;7.495587166
3073;Gümligen;BE;47.13098;7.531282016
3074;Muri b. Bern;BE;46.931454;7.49884
3075;Rüfenacht BE;BE;46.927406;7.544254
3076;Worb;BE;46.92723955;7.570766976
1030;Bussigny-près-Lausanne;VD;46.552254;6.550058
3077;Enggistein;BE;46.932019;7.59649
3078;Richigen;BE;46.882212;7.583361617
3082;Schlosswil;BE;46.906611;7.612471
3083;Trimstein;BE;46.902626;7.5748
3084;Wabern;BE;46.940719;7.458777347
3088;Oberbütschel;BE;46.817546;7.432574
3086;Zimmerwald;BE;46.85176;7.459328895
1032;Romanel-sur-Lausanne;VD;46.560792;6.608509
3087;Niedermuhlern;BE;46.857627;7.460841
3089;Hinterfultigen;BE;46.837569;7.401964
3096;Oberbalm;BE;46.865983;7.409022
3097;Liebefeld;BE;46.944076;7.401241393
3098;Köniz;BE;46.9043166;7.397806442
3099;Rüti b. Riggisberg;BE;46.770671;7.456789
3110;Münsingen;BE;46.87607634;7.560894769
1033;Cheseaux-sur-Lausanne;VD;46.578149;6.594388
3112;Allmendingen;BE;46.913624;7.521202
3114;Wichtrach;BE;46.84529995;7.579441412
3115;Gerzensee;BE;46.846389;7.546094
3116;Kirchdorf BE;BE;46.800029;7.543826
3629;Kiesen;BE;46.81261009;7.57995845
3628;Uttigen;BE;46.793616;7.572413
3122;Kehrsatz;BE;46.91211804;7.47155859
3123;Belp;BE;46.8927087;7.506752527
3124;Belpberg;BE;46.865719;7.520565
3125;Toffen;BE;46.85884;7.492389563
3126;Kaufdorf;BE;46.839328;7.495906
3127;Mühlethurnen;BE;46.81600327;7.51029785
1037;Etagnières;VD;46.60142633;6.608504607
3128;Kirchenthurnen;BE;46.822893;7.505082
3132;Riggisberg;BE;46.80833952;7.469437814
3664;Burgistein;BE;46.79207072;7.50323251
3665;Wattenwil;BE;46.75932381;7.49272129
3662;Seftigen;BE;46.79036261;7.539168383
3663;Gurzelen;BE;46.772385;7.534421
1038;Bercher;VD;46.69164206;6.706203376
3661;Uetendorf;BE;46.77497977;7.574569694
3144;Gasel;BE;46.89995;7.401854
3145;Niederscherli;BE;46.882799;7.379759494
3147;Mittelhäusern;BE;46.876539;7.368507
3148;Lanzenhäusern;BE;46.843541;7.347991
3150;Schwarzenburg;BE;46.845868;7.342788359
3152;Mamishaus;BE;46.80972;7.378855
3153;Rüschegg;BE;46.779807;7.392719
3154;Rüschegg Heubach;BE;46.78186;7.406947
3155;Helgisried;BE;46.814636;7.430354
3156;Riffenmatt;BE;46.767926;7.347175834
3157;Milken;BE;46.793094;7.359111
3158;Guggisberg;BE;46.744697;7.34371
3159;Riedstätt;BE;46.783138;7.313864811
3172;Niederwangen BE;BE;46.915275;7.380358
3173;Oberwangen b. Bern;BE;46.90428;7.367527
3174;Thörishaus;BE;46.901395;7.349417841
1040;Echallens;VD;46.63845651;6.635198705
3175;Flamatt;FR;46.879339;7.319625145
3176;Neuenegg;BE;46.90711611;7.298077887
3177;Laupen;BE;46.909876;7.242442
3178;Bösingen;FR;46.88401274;7.235806106
3179;Kriechenwil;BE;46.910791;7.222791
3182;Ueberstorf;FR;46.86946605;7.326402181
3183;Albligen;BE;46.851398;7.318044
3184;Wünnewil-Flamatt;FR;46.886637;7.280598787
3186;Düdingen;FR;46.84474079;7.191011829
3202;Frauenkappelen;BE;46.95535051;7.333408919
3203;Mühleberg;BE;46.9466152;7.271940946
3204;Rosshäusern;BE;46.904065;7.263085019
3205;Gümmenen;BE;46.931805;7.22765522
3206;Rizenbach;BE;46.904464;7.210972569
3207;Wileroltigen;BE;46.971434;7.238004
3208;Gurbrü;BE;46.957645;7.206759
3210;Kerzers;FR;46.98123394;7.198755274
3216;Ried b. Kerzers;FR;46.963442;7.178614
3215;Gempenach;FR;46.926529;7.16936
3214;Ulmiz;FR;46.928699;7.1981
3213;Liebistorf;FR;46.892839;7.200979
3212;Gurmels;FR;46.89408243;7.171914945
3225;Müntschemier;BE;46.99492903;7.146368991
3226;Treiten;BE;47.006501;7.162739
3232;Ins;BE;46.99813136;7.100544318
3233;Tschugg;BE;47.023603;7.076657
3234;Vinelz;BE;47.032627;7.116639
3235;Erlach;BE;47.036227;7.091857404
3236;Gampelen;BE;47.00569056;7.055760976
3250;Lyss;BE;47.07654279;7.316554863
3251;Wengi b. Büren;BE;47.08444;7.395477
3252;Worben;BE;47.10070725;7.296530105
3253;Schnottwil;SO;47.10875481;7.391195731
3254;Messen;SO;47.09050429;7.450319664
3255;Rapperswil BE;BE;47.058318;7.396824
3256;Dieterswil;BE;47.054388;7.444385
3257;Grossaffoltern;BE;47.06886951;7.356396238
3262;Suberg;BE;47.04958;7.329544257
3263;Büetigen;BE;47.105591;7.33811
3264;Diessbach b. Büren;BE;47.104293;7.363882
3266;Wiler b. Seedorf;BE;47.056157;7.326722
3267;Seedorf BE;BE;47.026663;7.312663
3268;Lobsigen;BE;47.024688;7.295837
3270;Aarberg;BE;47.04615296;7.282962081
3271;Radelfingen;BE;47.00338;7.268639
1377;Oulens-sous-Echallens;VD;46.644784;6.569388
3272;Walperswil;BE;47.050023;7.224739
3273;Kappelen;BE;47.062856;7.273573
3274;Hermrigen;BE;47.065096;7.244276
3280;Murten;FR;46.93591152;7.142960163
3282;Bargen BE;BE;47.033242;7.241203
1042;Bettens;VD;46.62418811;6.574856142
3283;Kallnach;BE;47.0156732;7.214975706
3284;Fräschels;FR;46.996302;7.212769
3285;Galmiz;FR;46.957451;7.149876
3286;Muntelier;FR;46.94018;7.134926
3292;Busswil b. Büren;BE;47.099301;7.318919
3293;Dotzigen;BE;47.12599063;7.348678544
3294;Büren an der Aare;BE;47.14174673;7.370641331
3295;Rüti b. Büren;BE;47.150885;7.410975
3296;Arch;BE;47.16555805;7.434154709
3297;Leuzigen;BE;47.17092463;7.466628198
3298;Oberwil b. Büren;BE;47.128188;7.411072
3302;Moosseedorf;BE;47.0104396;7.485374445
3303;Jegenstorf;BE;47.05214987;7.503572852
3308;Grafenried;BE;47.074722;7.506948
3312;Fraubrunnen;BE;47.0888759;7.530694804
1417;Epautheyres;VD;46.714233;6.64441
3313;Büren zum Hof;BE;47.096998;7.509538
3314;Schalunen;BE;47.111686;7.522374
3315;Bätterkinden;BE;47.13688241;7.529881591
3321;Schönbühl EKZ;BE;47.016541;7.490685
3322;Urtenen-Schönbühl;BE;47.02226142;7.499695762
3323;Bäriswil;BE;47.014102;7.530333
1041;Dommartin;VD;46.612293;6.693623
3324;Hindelbank;BE;47.04174028;7.543271896
3325;Hettiswil;BE;47.031199;7.557546
3326;Krauchthal;BE;47.00963581;7.562369412
3305;Iffwil;BE;47.062842;7.476191
1063;Peyres-Possens;VD;46.660073;6.753676
3306;Etzelkofen;BE;47.0811;7.479481
3307;Brunnenthal;SO;47.085442;7.466723
3309;Kernenried;BE;47.06676;7.548734
3317;Limpach;BE;47.100709;7.476074
3360;Herzogenbuchsee;BE;47.19462432;7.713788083
4556;Aeschi SO;SO;47.159102;7.684489
3376;Graben;BE;47.06265;7.680366
3372;Wanzwil;BE;47.194208;7.691538
3373;Heimenhausen;BE;47.212266;7.69461
3374;Wangenried;BE;47.217465;7.656892
3362;Niederönz;BE;47.1860568;7.683925438
3363;Oberönz;BE;47.173901;7.69023
3365;Seeberg;BE;47.144624;7.674446
3366;Bettenhausen;BE;47.1656;7.705148
3367;Thörigen;BE;47.17262677;7.730518928
3368;Bleienbach;BE;47.179135;7.753778
3400;Burgdorf;BE;47.05366353;7.619103997
3401;Burgdorf;BE;47.054845;7.624515
3402;Burgdorf;BE;47.05366353;7.619103997
3412;Heimiswil;BE;47.062672;7.662945
3413;Kaltacker;BE;47.079864;7.667294
3414;Oberburg;BE;47.02305432;7.606570648
3415;Hasle-Rüegsau;BE;47.017;7.666272928
3416;Affoltern im Emmental;BE;47.066512;7.733824
3417;Rüegsau;BE;47.034182;7.687681
3418;Rüegsbach;BE;47.034635;7.68994
3419;Biembach;BE;47.002252;7.628309
3421;Lyssach;BE;47.06670877;7.57866724
3422;Kirchberg BE;BE;47.081428;7.569064
3423;Ersigen;BE;47.09758155;7.604236057
1053;Bretigny-sur-Morrens;VD;46.596563;6.640643
3424;Niederösch;BE;47.10675;7.602671
3425;Koppigen;BE;47.13595604;7.602733901
3426;Aefligen;BE;47.09662196;7.549491118
3427;Utzenstorf;BE;47.12392518;7.563503974
3428;Wiler b. Utzenstorf;BE;47.151101;7.55781
3432;Lützelflüh;BE;47.006385;7.684925
3433;Schwanden i. E.;BE;46.984482;7.705494
3434;Obergoldbach;BE;46.953158;7.677932
3435;Ramsei;BE;46.997917;7.703024
3436;Zollbrück;BE;46.966595;7.751764693
3437;Rüderswil;BE;46.981046;7.724298
3438;Lauperswil;BE;46.958077;7.743791
3439;Ranflüh;BE;46.979843;7.757408074
3452;Grünenmatt;BE;47.007871;7.726404
3453;Heimisbach;BE;47.011755;7.760311
3454;Sumiswald;BE;47.03186224;7.814661694
3455;Grünen;BE;47.025077;7.736893
3456;Trachselwald;BE;47.010529;7.77232
3457;Wasen im Emmental;BE;47.043568;7.797653
3462;Weier im Emmental;BE;47.061417;7.748366
3463;Häusernmoos;BE;47.079517;7.749378
3464;Schmidigen-Mühlew;BE;47.09347;7.7474
3465;Dürrenroth;BE;47.083003;7.780304
3472;Wynigen;BE;47.10392519;7.691900134
1034;Boussens;VD;46.598316;6.581737
3473;Alchenstorf;BE;47.122544;7.63666
3474;Rüedisbach;BE;47.119553;7.702974
3475;Riedtwil;BE;46.96345;7.61395
3476;Oschwand;BE;47.140757;7.71283
3111;Tägertschi;BE;46.87056;7.584784
3503;Gysenstein;BE;46.89028;7.59149
3504;Niederhünigen;BE;46.871194;7.642855
3506;Grosshöchstetten;BE;46.90550916;7.632453668
1035;Bournens;VD;46.608669;6.563911
3507;Biglen;BE;46.92781811;7.626664769
3508;Arni BE;BE;46.93135;7.644221
3510;Konolfingen;BE;46.88657664;7.608138909
3512;Walkringen;BE;46.96068556;7.627357875
3513;Bigenthal;BE;46.947587;7.613296977
1036;Sullens;VD;46.589389;6.566006
3672;Oberdiessbach;BE;46.8426041;7.627468245
3673;Linden;BE;46.8484277;7.686816753
3674;Bleiken b. Oberdiessbach;BE;46.815761;7.638606
3671;Brenzikofen;BE;46.815044;7.616377
3531;Oberthal;BE;46.91742;7.6768
3532;Zäziwil;BE;46.89565747;7.667560678
3533;Bowil;BE;46.890039;7.6928
3534;Signau;BE;46.91548049;7.738809749
3535;Schüpbach;BE;46.939127;7.73218541
3536;Aeschau;BE;46.897257;7.770171926
3537;Eggiwil;BE;46.86536803;7.809183429
3538;Röthenbach im Emmental;BE;46.842302;7.756023
3543;Emmenmatt;BE;46.949955;7.750770432
1043;Sugnens;VD;46.651148;6.671968
3550;Langnau im Emmental;BE;46.953716;7.809589
3551;Oberfrittenbach;BE;46.951652;7.778628
3552;Bärau;BE;46.932244;7.825268565
3553;Gohl;BE;46.954928;7.806979
3555;Trubschachen;BE;46.90843495;7.836887559
3556;Trub;BE;46.949796;7.891328
3557;Fankhaus (Trub);BE;46.967703;7.908681
3600;Thun;BE;46.74657748;7.622171178
1044;Fey;VD;46.672851;6.678434
3601;Thun;BE;46.74657748;7.622171178
3602;Thun;BE;46.756967;7.630185
3603;Thun;BE;46.761905;7.597535
3604;Thun;BE;46.74657748;7.622171178
3605;Thun;BE;46.756967;7.630185
1045;Ogens;VD;46.705933;6.719208
3607;Thun;BE;46.74657748;7.622171178
3608;Thun;BE;46.74657748;7.622171178
3617;Fahrni;BE;46.798136;7.654146
3618;Süderen;BE;46.815574;7.729619
3619;Eriz;BE;46.78758;7.798843
3622;Homberg;BE;46.775266;7.682735
1407;Bioley-Magnoux;VD;46.72658184;6.714626656
3635;Uebeschi;BE;46.736994;7.545558
3631;Höfen;BE;46.717808;7.564137
3636;Längenbühl;BE;46.767478;7.5225775
3612;Steffisburg;BE;46.7814445;7.632700887
3613;Steffisburg;BE;46.7814445;7.632700887
3614;Unterlangenegg;BE;46.79926246;7.701248029
3615;Heimenschwand;BE;46.816281;7.703335451
3616;Schwarzenegg;BE;46.799803;7.734264
3623;Teuffenthal BE;BE;46.774834;7.776072
3624;Goldiwil (Thun);BE;46.769152;7.658443
3625;Heiligenschwendi;BE;46.75200626;7.682288613
3626;Hünibach;BE;46.754527;7.656426339
3627;Heimberg;BE;46.79316643;7.603509226
1052;Le Mont-sur-Lausanne;VD;46.554765;6.640144
3633;Amsoldingen;BE;46.725023;7.583751
3634;Thierachern;BE;46.75111764;7.572179579
3638;Blumenstein;BE;46.7281352;7.495475786
3645;Gwatt (Thun);BE;46.70912;7.609926
3646;Einigen;BE;46.718206;7.630969297
3647;Reutigen;BE;46.692768;7.605791
3652;Hilterfingen;BE;46.740348;7.657883
3653;Oberhofen am Thunersee;BE;46.736166;7.65483
3654;Gunten;BE;46.719012;7.699379464
3655;Sigriswil;BE;46.73528705;7.747749374
3656;Tschingel;BE;46.723893;7.710341
3657;Schwanden Sigrisw;BE;46.735805;7.713527
3658;Merligen;BE;46.700977;7.730389519
3700;Spiez;BE;46.68657013;7.670619076
3702;Hondrich;BE;46.662829;7.654806585
1054;Morrens VD;VD;46.589857;6.585893
3703;Aeschi b. Spiez;BE;46.623498;7.747447
3704;Krattigen;BE;46.651155;7.736121
3705;Faulensee;BE;46.662033;7.724485715
3706;Leissigen;BE;46.6419933;7.779500096
3707;Därligen;BE;46.654712;7.812438
3711;Emdthal;BE;46.652877;7.686458
1055;Froideville;VD;46.59817925;6.691723747
3713;Reichenbach im Kandertal;BE;46.574101;7.736887
3714;Frutigen;BE;46.55844393;7.616790868
3715;Adelboden;BE;46.4736861;7.555138846
3716;Kandergrund;BE;46.537634;7.666921
3717;Blausee-Mitholz;BE;46.533405;7.668789
3718;Kandersteg;BE;46.46923375;7.708315752
3722;Scharnachtal;BE;46.617169;7.698187
3723;Kiental;BE;46.563591;7.760876726
3724;Ried (Frutigen);BE;46.576555;7.624804
3725;Achseten;BE;46.527804;7.597219
3752;Wimmis;BE;46.66150078;7.641661169
3753;Oey;BE;46.668868;7.583837001
3754;Diemtigen;BE;46.606397;7.536272
3755;Horboden;BE;46.632046;7.560812
1410;Thierrens;VD;46.70385189;6.7589235
3756;Zwischenflüh;BE;46.607053;7.51577
3757;Schwenden;BE;46.563416;7.482144674
3758;Latterbach;BE;46.664195;7.57892
3762;Erlenbach im Simmental;BE;46.662212;7.539807
3763;Därstetten;BE;46.637448;7.491207
3764;Weissenburg;BE;46.638708;7.475989122
3765;Oberwil im Simmental;BE;46.655754;7.431625
3766;Boltigen;BE;46.60460278;7.357355975
3770;Zweisimmen;BE;46.54932975;7.37984844
3771;Blankenburg;BE;46.51939;7.388315788
3772;St.Stephan;BE;46.503191;7.425975
3773;Matten(St.Stephan);BE;46.497103;7.422602
3775;Lenk;BE;46.428896;7.449519
3776;Oeschseite;BE;46.52935;7.34829
3777;Saanenmöser;BE;46.54501;7.284786335
3778;Schönried;BE;46.496872;7.294363434
3780;Gstaad;BE;46.461214;7.281459728
1066;Epalinges;VD;46.55071407;6.668432443
3781;Turbach;BE;46.478435;7.33046
3782;Lauenen;BE;46.398346;7.337137
3783;Grund b. Gstaad;BE;46.457807;7.28019
3784;Feutersoey;BE;46.416896;7.26305222
3785;Gsteig;BE;46.383177;7.253012
3792;Saanen;BE;46.48155369;7.288394563
3800;Interlaken;BE;46.6871431;7.864861677
1073;Savigny;VD;46.54889152;6.727008833
3801;Jungfraujoch;VS;46.55241;7.984591069
3803;Beatenberg;BE;46.71477149;7.804433113
3804;Habkern;BE;46.75076;7.88121
1083;Mézières VD;VD;46.586341;6.760865
3805;Goldswil;BE;46.696445;7.876505
3806;Bönigen;BE;46.67993399;7.924263528
3807;Iseltwald;BE;46.700792;7.973526
3812;Wilderswil;BE;46.64577739;7.865840034
3813;Saxeten;BE;46.627407;7.827921
3814;Gsteigwiler;BE;46.644571;7.882605
3815;Zweilütschinen;BE;46.635896;7.900427875
1092;Belmont-sur-Lausanne;VD;46.526863;6.687281
3816;Lütschental;BE;46.638529;7.947553
3818;Grindelwald;BE;46.61906999;8.050987685
3822;Lauterbrunnen;BE;46.55162831;7.893687514
3823;Wengen;BE;46.598978;7.913670194
1093;La Conversion;VD;46.513315;6.677415
3824;Stechelberg;BE;46.554216;7.899128468
3825;Mürren;BE;46.570481;7.878070171
3826;Gimmelwald;BE;46.550956;7.880606881
3852;Ringgenberg BE;BE;46.70722;7.890816
3853;Niederried b. Interlaken;BE;46.723711;7.924918
3854;Oberried am Brienzersee;BE;46.756674;7.956492
3855;Brienz BE;BE;46.674224;8.027147806
1094;Paudex;VD;46.50838687;6.673630207
3856;Brienzwiler;BE;46.730571;8.098808
3857;Unterbach BE;BE;46.737336;8.109508
3858;Hofstetten b. Brienz;BE;46.766043;8.076924
3860;Meiringen;BE;46.71851731;8.134398366
3862;Innertkirchen;BE;46.67164198;8.237058326
3863;Gadmen;BE;46.700904;8.293981582
1095;Lutry;VD;46.5150856;6.698961962
3864;Guttannen;BE;46.600201;8.260003
3900;Brig;VS;46.2969;7.94887572
3949;Hohtenn;VS;46.326628;7.75637
3903;Birgisch;VS;46.329408;7.958741
1096;Cully;VD;46.49906512;6.731697328
3914;Blatten b. Naters;VS;46.361416;7.975016627
3913;Rosswald;VS;46.304681;8.051945
3911;Ried-Brig;VS;46.28643384;8.064927784
3912;Termen;VS;46.321579;8.042022
3901;Rothwald;VS;46.200966;8.129013983
3907;Simplon Hospiz;VS;46.16296;8.097774
1097;Riex;VD;46.500392;6.733847
3922;Eisten;VS;46.17911127;7.907529789
3908;Saas Balen;VS;46.152465;7.928471
3910;Saas Grund;VS;46.131294;7.970195
3902;Glis;VS;46.293768;7.958220054
3917;Goppenstein;VS;46.360971;7.757681638
3916;Ferden;VS;46.386991;7.735974
3918;Wiler (Lötschen);VS;46.40739905;7.787004714
1098;Epesses;VD;46.495067;6.746229
3919;Blatten(Lötschen);VS;46.440382;7.855985
3904;Naters;VS;46.40761788;7.982929595
3905;Saas Almagell;VS;46.054956;7.96519
3906;Saas Fee;VS;46.090454;7.899755
3920;Zermatt;VS;45.98972541;7.75247665
3923;Törbel;VS;46.245252;7.840133
3926;Embd;VS;46.216753;7.810055
3927;Herbriggen;VS;46.173593;7.791570855
3928;Randa;VS;46.097174;7.779849
3929;Täsch;VS;46.0540448;7.811030386
3924;St.Niklaus;VS;46.156769;7.800318
3925;Grächen;VS;46.19669254;7.848767444
3930;Visp;VS;46.29135951;7.880870987
3942;St. German;VS;46.334015;7.782662
3933;Staldenried;VS;46.221295;7.902237
3937;Baltschieder;VS;46.37590288;7.880561553
3938;Ausserberg;VS;46.3271486;7.853665295
3939;Eggerberg;VS;46.313205;7.883654
3931;Lalden;VS;46.281637;7.905106223
3932;Visperterminen;VS;46.24303004;7.940136642
3934;Zeneggen;VS;46.272163;7.858746
1058;Villars-Tiercelin;VD;46.618599;6.705818
3935;Bürchen;VS;46.26973698;7.818021944
3943;Eischoll;VS;46.282693;7.76284
3944;Unterbäch;VS;46.255166;7.777652
3947;Ergisch;VS;46.252041;7.722855
3948;Unterems;VS;46.217013;7.697798
3946;Gruben;VS;46.190965;7.696207224
1059;Peney-le-Jorat;VD;46.624096;6.730512
3951;Agarn;VS;46.276619;7.663583
3955;Albinen;VS;46.3498;7.643955
3956;Guttet-Feschel;VS;46.297858;7.686451532
3957;Erschmatt;VS;46.325996;7.704686
3953;Varen;VS;46.33754623;7.592777242
3976;Noës;VS;46.280678;7.505064
3978;Flanthey;VS;46.269075;7.449795
1978;Lens;VS;46.29467742;7.457991623
1977;Icogne;VS;46.325077;7.454108
3979;Grône;VS;46.23344496;7.486435044
1061;Villars-Mendraz;VD;46.643529;6.726124
3945;Gampel;VS;46.32017;7.718788734
3952;Susten;VS;46.307434;7.63982132
1062;Sottens;VD;46.652751;6.738431
3954;Leukerbad;VS;46.40211816;7.627651391
3970;Salgesch;VS;46.31330812;7.574749584
3977;Granges VS;VS;46.258419;7.46383
1958;Saint-Léonard;VS;46.255381;7.425407
3960;Sierre;VS;46.27829885;7.515650124
3971;Chermignon;VS;46.28859178;7.476297431
3972;Miège;VS;46.31466;7.548467
3973;Venthône;VS;46.30626713;7.526716123
3974;Mollens VS;VS;46.349149;7.534283
3975;Randogne;VS;46.317836;7.49901
3961;Vissoie;VS;46.22216396;7.58253596
3967;Vercorin;VS;46.245071;7.508388351
3963;Montana;VS;46.29834747;7.488090727
3965;Chippis;VS;46.27673882;7.542852601
3966;Chalais;VS;46.24770302;7.530147889
3968;Veyras;VS;46.30376206;7.542391096
1080;Les Cullayes;VD;46.568218;6.754425
3982;Bitsch;VS;46.343986;7.997293
3993;Grengiols;VS;46.354546;8.121318
3994;Lax;VS;46.39375;8.091275
3997;Bellwald;VS;46.4446758;8.156948904
3989;Niederwald;VS;46.435702;8.194468
1081;Montpreveyres;VD;46.58129912;6.730564619
3998;Gluringen;VS;46.458064;8.252187
3985;Geschinen;VS;46.492073;8.274626
3988;Obergesteln;VS;46.485226;8.333332
3999;Oberwald;VS;46.545008;8.391327
3986;Ried-Mörel;VS;46.357341;8.032008
3987;Riederalp;VS;46.37788222;8.030500388
3991;Betten;VS;46.417296;8.058342
3992;Bettmeralp;VS;46.389509;8.061181
3995;Ernen;VS;46.38385;8.150401092
1082;Corcelles-le-Jorat;VD;46.600963;6.730338
3996;Binn;VS;46.366918;8.217672
3983;Mörel;VS;46.35517455;8.041137463
3984;Fiesch;VS;46.41342689;8.118458172
1088;Ropraz;VD;46.613243;6.752623
4000;Basel;BS;47.559662;7.58053
1084;Carrouge VD;VD;46.599449;6.766514
4001;Basel;BS;47.55774085;7.593655885
1085;Vulliens;VD;46.622192;6.793369
4002;Basel;BS;47.55774085;7.593655885
1509;Vucherens;VD;46.623673;6.775558
4003;Basel;BS;47.55774085;7.593655885
4004;Basel;BS;47.55774085;7.593655885
4005;Basel;BS;47.55774085;7.593655885
4060;Basel Kbasel Zust;BS;47.559662;7.58053
4007;Basel;BS;47.55774085;7.593655885
1510;Syens;VD;46.64290133;6.778197394
4008;Basel;BS;47.55774085;7.593655885
4009;Basel;BS;47.55774085;7.593655885
4010;Basel;BS;47.55774085;7.593655885
4011;Basel;BS;47.55774085;7.593655885
4012;Basel;BS;47.55774085;7.593655885
4013;Basel;BS;47.55774085;7.593655885
4015;Basel;BS;47.55774085;7.593655885
4016;Basel;BS;47.55774085;7.593655885
4017;Basel;BS;47.559662;7.58053
1076;Ferlens VD;VD;46.585676;6.74403
4018;Basel;BS;47.55774085;7.593655885
4019;Basel;BS;47.55774085;7.593655885
4020;Basel;BS;47.55774085;7.593655885
4023;Basel;BL;47.53252;7.60963
4024;Basel;BS;47.559662;7.58053
4025;Basel;BS;47.55774085;7.593655885
4030;Basel;BS;47.559662;7.58053
1077;Servion;VD;46.573372;6.776623
4031;Basel;BS;47.561951;7.5833
4032;Basel;BS;47.55774085;7.593655885
4051;Basel;BS;47.55774085;7.593655885
4052;Basel;BS;47.55774085;7.593655885
4053;Basel;BS;47.55774085;7.593655885
4054;Basel;BS;47.54874;7.58768
4055;Basel;BS;47.54874;7.58768
4056;Basel;BS;47.54874;7.58768
1078;Essertes;VD;46.561225;6.785426
4057;Basel;BS;47.54874;7.58768
4058;Basel;BS;47.55774085;7.593655885
4059;Basel;BS;47.54874;7.58768
4091;Basel;BS;47.559662;7.58053
4101;Bruderholz;BL;47.527729;7.57895
4102;Binningen;BL;47.53665506;7.567879069
4103;Bottmingen;BL;47.52206621;7.576431516
4104;Oberwil BL;BL;47.513088;7.548069
1673;Auboranges;FR;46.582484;6.805051
4105;Biel-Benken;BL;47.506771;7.520962
4106;Therwil;BL;47.49751413;7.559178163
4107;Ettingen;BL;47.47448457;7.54599013
4108;Witterswil;SO;47.48754258;7.526075717
4112;Bättwil-Flüh;SO;47.490851;7.507024
4114;Hofstetten-Flüh;SO;47.475694;7.515981
4115;Mariastein;SO;47.462409;7.518911678
4116;Metzerlen-Mariastein;SO;47.441444;7.466742357
4117;Burg im Leimental;BL;47.45232807;7.436828342
4118;Rodersdorf;SO;47.48457134;7.446291442
4123;Allschwil;BL;47.5450581;7.53756286
4124;Schönenbuch;BL;47.53519647;7.506161249
4125;Riehen;BS;47.57941443;7.651222385
4126;Bettingen;BS;47.57038017;7.672314529
4127;Birsfelden;BL;47.55348684;7.629791294
4132;Muttenz;BL;47.5248081;7.649095608
4133;Pratteln;BL;47.51850575;7.692788777
1110;Morges;VD;46.51401008;6.493130602
4142;Münchenstein;BL;47.51857454;7.617445685
4143;Dornach;SO;47.47655305;7.624302682
4144;Arlesheim;BL;47.49545185;7.628339203
4145;Gempen;SO;47.477096;7.658979
4146;Hochwald;SO;47.453484;7.639069
4147;Aesch BL;BL;47.472751;7.584885
4148;Pfeffingen;BL;47.45724207;7.580325568
4153;Reinach BL;BL;47.496518;7.585934
4202;Duggingen;BL;47.452244;7.610378
4203;Grellingen;BL;47.4389491;7.586717302
4206;Seewen;SO;47.425864;7.642147
4207;Bretzwil;BL;47.397758;7.652126
4208;Nunningen;SO;47.39787585;7.616402826
4222;Zwingen;BL;47.4359424;7.527932918
4225;Brislach;BL;47.418974;7.545888
4226;Breitenbach;SO;47.40651425;7.557159233
4227;Büsserach;SO;47.3897611;7.544723766
4228;Erschwil;SO;47.371732;7.544764
4242;Laufen;BL;47.41017917;7.490166316
4243;Dittingen;BL;47.432933;7.492666
4244;Röschenz;BL;47.432871;7.464282
4245;Kleinlützel;SO;47.426903;7.417768
4204;Himmelried;SO;47.423885;7.591429
4223;Blauen;BL;47.449864;7.522261
4224;Nenzlingen;BL;47.445511;7.549794
4229;Beinwil;SO;47.354351;7.563666
4232;Fehren;SO;47.396947;7.578931
4233;Meltingen;SO;47.37935969;7.588915876
4234;Zullwil;SO;47.388002;7.602075
4246;Wahlen;BL;47.393918;7.511952
4247;Grindel;SO;47.378656;7.506261
4252;Bärschwil;SO;47.384507;7.466045
1112;Echichens;VD;46.526924;6.493396
4253;Liesberg;BL;47.40074;7.426965
4254;Liesberg Dorf;BL;47.403675;7.431795
4302;Augst;BL;47.523931;7.710554
4303;Kaiseraugst;AG;47.53611371;7.742240767
4304;Giebenach;BL;47.513104;7.738453
1167;Lussy-sur-Morges;VD;46.49606;6.444645
4305;Olsberg;AG;47.521527;7.778841
4310;Rheinfelden;AG;47.55589992;7.804628303
4312;Magden;AG;47.52038333;7.810193244
4313;Möhlin;AG;47.56329722;7.854058398
4314;Zeiningen;AG;47.54323983;7.876346311
4315;Zuzgen;AG;47.52544;7.900246
4316;Hellikon;AG;47.506901;7.916505
1132;Lully VD;VD;46.500568;6.443697
4317;Wegenstetten;AG;47.49388522;7.931231788
4322;Mumpf;AG;47.546191;7.915062
4323;Wallbach;AG;47.56805161;7.89788438
4324;Obermumpf;AG;47.526992;7.929257
4325;Schupfart;AG;47.51287;7.962375
4332;Stein AG;AG;47.542713;7.940332
4333;Münchwilen AG;AG;46.820696;6.488999
4334;Sisseln;AG;47.549217;7.982954
1131;Tolochenaz;VD;46.50163235;6.477175167
5080;Laufenburg;AG;47.55659434;8.063215735
5082;Kaisten;AG;47.53900005;8.044941693
5083;Ittenthal;AG;47.518341;8.056519
5084;Rheinsulz;AG;47.555919;8.089069
5085;Sulz AG;AG;47.538551;8.084892
5275;Etzgen;AG;47.570983;8.112723
5274;Mettau;AG;47.56667;8.12625
1125;Monnaz;VD;46.53191;6.474588
5273;Oberhofen AG;AG;47.552731;8.115638
5272;Gansingen;AG;47.536233;8.126227
5276;Wil AG;AG;47.565945;8.154864
5277;Hottwil;AG;47.543034;8.161843
5326;Schwaderloch;AG;47.584987;8.144856
5325;Leibstadt;AG;47.58972504;8.178484922
5324;Full-Reuenthal;AG;47.602662;8.200742
4402;Frenkendorf;BL;47.50095824;7.697015663
1126;Vaux-sur-Morges;VD;46.530833;6.463538
4410;Liestal;BL;47.48541198;7.725729908
4411;Seltisberg;BL;47.46196198;7.71568005
4412;Nuglar-St.Pantaleon;SO;47.460757;7.690183
4413;Büren SO;SO;47.447666;7.67218
4414;Füllinsdorf;BL;47.51095711;7.732017691
4415;Lausen;BL;47.47055606;7.765587332
1127;Clarmont;VD;46.545933;6.445828
4416;Bubendorf;BL;47.44580937;7.737059288
4417;Ziefen;BL;47.42902886;7.702688052
4418;Reigoldswil;BL;47.3957244;7.690068485
4419;Lupsingen;BL;47.438658;7.695821
4421;St. Pantaleon;SO;47.460751;7.69019
4422;Arisdorf;BL;47.50952334;7.766934188
4423;Hersberg;BL;47.486168;7.779415
4424;Arboldswil;BL;47.414999;7.712544
4425;Titterten;BL;47.401741;7.716374
1128;Reverolle;VD;46.538109;6.43971
4426;Lauwil;BL;47.387153;7.665397
4431;Bennwil;BL;47.396023;7.771294
4432;Lampenberg;BL;47.42669;7.752938
4433;Ramlinsburg;BL;47.443084;7.766241
4434;Hölstein;BL;47.42590918;7.774969699
4435;Niederdorf;BL;47.41089209;7.748016084
4436;Oberdorf BL;BL;47.387014;7.715766
1113;Saint-Saphorin-sur-Morges;VD;46.546192;6.490415
4437;Waldenburg;BL;47.3766645;7.739419275
4438;Langenbruck;BL;47.35797779;7.770934515
4441;Thürnen;BL;47.45310027;7.828875503
4442;Diepflingen;BL;47.443554;7.841966
4443;Wittinsburg;BL;47.4285;7.838893
4444;Rümlingen;BL;47.424298;7.862197
4445;Häfelfingen;BL;47.408502;7.867038
4446;Buckten;BL;47.410769;7.848154
1114;Colombier VD;VD;46.55421;6.461996
4447;Känerkinden;BL;47.410854;7.832038
4448;Läufelfingen;BL;47.39363531;7.855759421
4450;Sissach;BL;47.47219223;7.807727401
4451;Wintersingen;BL;47.489021;7.822875
4452;Itingen;BL;47.4648249;7.784809533
4453;Nusshof;BL;47.489309;7.795193
4455;Zunzgen;BL;47.44509465;7.798600049
1115;Vullierens;VD;46.573068;6.477375
4456;Tenniken;BL;47.43256789;7.814884145
4457;Diegten;BL;47.40924388;7.809907395
4458;Eptingen;BL;47.380087;7.819396
4460;Gelterkinden;BL;47.45692699;7.858516706
4461;Böckten;BL;47.466136;7.83246
4465;Hemmiken;BL;47.464104;7.884622
4469;Anwil;BL;47.447107;7.933423
1116;Cottens VD;VD;46.572465;6.453207
4462;Rickenbach BL;BL;47.482914;7.846253
4463;Buus;BL;47.505769;7.864338
4464;Maisprach;BL;47.521894;7.838998
4466;Ormalingen;BL;47.4730516;7.878411546
4467;Rothenfluh;BL;47.467605;7.917018
4468;Kienberg;SO;47.436677;7.965966
4492;Tecknau;BL;47.445678;7.893283
4493;Wenslingen;BL;47.440539;7.907641
4494;Oltingen;BL;47.42989;7.933117
1117;Grancy;VD;46.593785;6.463387
4495;Zeglingen;BL;47.41357;7.910337
4496;Kilchberg BL;BL;47.424506;7.882551
4497;Rünenberg;BL;47.432095;7.881264
4500;Solothurn;SO;47.20837282;7.530110892
4501;Solothurn;SO;47.20837282;7.530110892
1304;Senarclens;VD;46.59917881;6.484664715
4502;Solothurn;SO;47.20837282;7.530110892
4503;Solothurn;SO;47.20837282;7.530110892
4515;Weissenstein;SO;47.237892;7.471323
4525;Balm b. Günsberg;SO;47.260392;7.543842
1121;Bremblens;VD;46.543998;6.518788
4523;Niederwil SO;SO;47.249268;7.056852
4535;Hubersdorf;SO;47.244383;7.588875
4539;Rumisberg;BE;47.267862;7.610398
4557;Horriwil;SO;47.180387;7.624709
4558;Hersiwil;SO;47.154839;7.637743
4512;Bellach;SO;47.2105447;7.495781999
4513;Langendorf;SO;47.22169561;7.515532114
4514;Lommiswil;SO;47.22842758;7.467874864
1122;Romanel-sur-Morges;VD;46.55617;6.508911
4522;Rüttenen;SO;47.24058906;7.533416193
4524;Günsberg;SO;47.26300777;7.574271251
4528;Zuchwil;SO;47.20575982;7.563644082
4532;Feldbrunnen-St.Niklaus;SO;47.214489;7.555903643
4533;Riedholz;SO;47.23191827;7.570031419
4534;Flumenthal;SO;47.23425166;7.602219548
4536;Attiswil;BE;47.25326291;7.610746423
4537;Wiedlisbach;BE;47.24568401;7.651681489
4538;Oberbipp;BE;47.25406127;7.677555369
4552;Derendingen;SO;47.19184943;7.589909257
1123;Aclens;VD;46.56825925;6.510843005
4553;Subingen;SO;47.20006594;7.623902554
4554;Etziken;SO;47.18784976;7.645775648
3375;Inkwil;BE;47.199536;7.664476
4562;Biberist;SO;47.18503405;7.547802393
4563;Gerlafingen;SO;47.17056289;7.572042058
4564;Obergerlafingen;SO;47.16173337;7.584099888
4565;Recherswil;SO;47.15988399;7.601581274
1124;Gollion;VD;46.585151;6.511818
4566;Kriegstetten;SO;47.17489637;7.595071362
4581;Küttigkofen;SO;47.150716;7.512753
4586;Kyburg-Buchegg;SO;47.142041;7.510683
4582;Brügglen;SO;47.135794;7.494592
4583;Mühledorf SO;SO;47.12324;7.462918
4579;Gossliwil;SO;47.136245;7.431983
4578;Bibern SO;SO;47.146907;7.452348
4571;Lüterkofen-Ichertswil;SO;47.159507;7.501963
4576;Tscheppach;SO;47.145911;7.481452
4577;Hessigkofen;SO;47.141927;7.45996
4584;Lüterswil-Gächliwil;SO;47.119934;7.440955
4585;Biezwil;SO;47.110723;7.418802
4587;Aetingen;SO;47.126791;7.498148
4588;Unterramsern;SO;47.108465;7.46164
4574;Nennigkofen;SO;47.18261016;7.489141689
4600;Olten;SO;47.34483361;7.900143056
1134;Vufflens-le-Château;VD;46.513821;6.473592
4601;Olten;SO;47.352119;7.904029
4603;Olten;SO;47.34483361;7.900143056
4612;Wangen b. Olten;SO;47.341769;7.870865
4613;Rickenbach SO;SO;47.342294;7.842657
1135;Denens;VD;46.515855;6.452254
4614;Hägendorf;SO;47.34542582;7.824530691
4616;Kappel SO;SO;47.320832;7.85304
4617;Gunzgen;SO;47.31283831;7.835256843
4618;Boningen;SO;47.303679;7.853101
4622;Egerkingen;SO;47.32599845;7.796370263
4623;Neuendorf;SO;47.29724696;7.800829836
4624;Härkingen;SO;47.30460113;7.821389782
4625;Oberbuchsiten;SO;47.31219128;7.759867619
4626;Niederbuchsiten;SO;47.289866;7.769017
4632;Trimbach;SO;47.36972729;7.8895303
1136;Bussy-Chardonney;VD;46.528814;6.440662
4652;Winznau;SO;47.36982739;7.924736082
4653;Obergösgen;SO;47.36414135;7.954139667
4654;Lostorf;SO;47.38852028;7.934748964
4655;Stüsslingen;SO;47.393915;7.968304
4656;Starrkirch-Wil;SO;47.34304972;7.927110166
4657;Dulliken;SO;47.34475704;7.946261978
4658;Däniken;SO;47.355475;7.97978
1169;Yens;VD;46.524228;6.409048
4663;Aarburg;AG;47.32417105;7.907357681
4665;Oftringen;AG;47.31337983;7.938951629
4615;Allerheiligenberg;SO;47.352307;7.814686
4633;Hauenstein-Ifenthal;SO;47.362931;7.74835974
1168;Villars-sous-Yens;VD;46.506377;6.426473
4634;Wisen SO;SO;47.394426;7.873898
4702;Oensingen;SO;47.28794957;7.722680155
4703;Kestenholz;SO;47.27633898;7.753319322
4704;Niederbipp;BE;47.26620059;7.703813057
3380;Wangen an der Aare;BE;47.23110639;7.650196669
3377;Walliswil b. Wangen;BE;47.223522;7.683358
4543;Deitingen;SO;47.21797057;7.62069114
1144;Ballens;VD;46.553149;6.377318
4542;Luterbach;SO;47.21595937;7.586783526
4710;Balsthal;SO;47.31444624;7.700378705
4714;Aedermannsdorf;SO;47.309634;7.592962
4715;Herbetswil;SO;47.293577;7.572722
4719;Ramiswil;SO;47.351663;7.642716783
4712;Laupersdorf;SO;47.31424256;7.655450314
1149;Berolle;VD;46.56536;6.326259
4713;Matzendorf;SO;47.3048393;7.626994828
4716;Welschenrohr;SO;47.27607355;7.520595214
4717;Mümliswil-Ramiswil;SO;47.351926;7.69902912
4718;Holderbank SO;SO;47.331459;7.751357
4800;Zofingen;AG;47.288833;7.963335806
4801;Zofingen;AG;47.288621;7.94631
4802;Strengelbach;AG;47.28179692;7.922699624
4803;Vordemwald;AG;47.27002933;7.89234284
4805;Brittnau;AG;47.25470257;7.927486442
1146;Mollens VD;VD;46.577414;6.338158
4806;Wikon;LU;47.26769481;7.979037748
4812;Mühlethal;AG;47.303173;7.984882
4813;Uerkheim;AG;47.30363756;8.008985116
4814;Bottenwil;AG;47.284175;8.002902
4852;Rothrist;AG;47.29834481;7.885365674
4853;Murgenthal;AG;47.25798188;7.855140377
4629;Fulenbach;SO;47.28079905;7.832770075
4628;Wolfwil;SO;47.27012738;7.798212971
4856;Glashütten;AG;47.258647;7.84517
1147;Montricher;VD;46.602411;6.369704
4900;Langenthal;BE;47.21583762;7.794558515
4901;Langenthal;BE;47.21206;7.789998
4902;Langenthal;BE;47.21583762;7.794558515
4911;Schwarzhäusern;BE;47.255555;7.766726
4912;Aarwangen;BE;47.23529519;7.763455953
1142;Pampigny;VD;46.58623948;6.421975291
4913;Bannwil;BE;47.238312;7.726483
4914;Roggwil BE;BE;47.235571;7.817182
4915;St. Urban;LU;47.227325;7.839125
4916;Untersteckholz;BE;46.875973;7.278834
4917;Melchnau;BE;47.17711476;7.856183617
4955;Gondiswil;BE;47.142664;7.869465
4919;Reisiswil;BE;47.159524;7.839466
4922;Bützberg;BE;47.205002;7.734421
1141;Sévery;VD;46.568625;6.440116
4923;Wynau;BE;47.25613607;7.805384471
4924;Obersteckholz;BE;47.20048;7.824017
4932;Lotzwil;BE;47.19021005;7.792078091
4933;Rütschelen;BE;47.170376;7.770555
4934;Madiswil;BE;47.16194243;7.811013687
4935;Leimiswil;BE;47.145162;7.764874
4936;Kleindietwil;BE;47.140837;7.791827
4937;Ursenbach;BE;47.12934301;7.764155037
1143;Apples;VD;46.55498269;6.416560235
4938;Rohrbach;BE;47.13190018;7.810751548
4942;Walterswil BE;BE;47.102269;7.762373
4943;Oeschenbach;BE;47.109621;7.745695
4944;Auswil;BE;47.132304;7.83405
4950;Huttwil;BE;47.10776251;7.846432655
4952;Eriswil;BE;47.07175062;7.857705185
4953;Schwarzenbach BE;BE;47.107239;7.8283
4954;Wyssachen;BE;47.07401812;7.821409183
1145;Bière;VD;46.54782406;6.317485324
5000;Aarau;AG;47.38875067;8.048299599
5001;Aarau;AG;47.391815;8.04999
1148;L'Isle;VD;46.62443778;6.393140816
5004;Aarau;AG;47.38875067;8.048299599
5012;Schönenwerd;SO;47.37314528;8.009535055
5013;Niedergösgen;SO;47.37344871;7.983956508
5014;Gretzenbach;SO;47.347761;7.996405
5015;Erlinsbach SO;SO;47.405869;7.993739068
1162;Saint-Prex;VD;46.485439;6.447188
5017;Barmelweid;AG;47.42159;7.972965
5022;Rombach;AG;47.40771;8.049745
5023;Biberstein;AG;47.417602;8.082315
5024;Küttigen;AG;47.42028042;8.044091303
5025;Asp;AG;47.442139;8.0538
5026;Densbüren;AG;47.45115;8.054979
5027;Herznach;AG;47.466292;8.043119
5028;Ueken;AG;47.48534864;8.043472935
5032;Rohr AG;AG;47.405464;8.082255
1163;Etoy;VD;46.48423685;6.421743553
5033;Buchs AG;AG;47.392417;8.064227
5034;Suhr;AG;47.37484082;8.083878703
5035;Unterentfelden;AG;47.36835324;8.042742104
5036;Oberentfelden;AG;47.35422136;8.041283723
5037;Muhen;AG;47.33296077;8.062781007
1164;Buchillon;VD;46.465948;6.412819
5040;Schöftland;AG;47.30533988;8.055738268
5042;Hirschthal;AG;47.31756475;8.067216335
5043;Holziken;AG;47.319475;8.034354333
5044;Schlossrued;AG;47.290618;8.087858
5046;Schmiedrued;AG;47.264278;8.107676
5053;Staffelbach;AG;47.28307765;8.038718222
5054;Kirchleerau-Moosle;AG;47.266467;8.064149
1165;Allaman;VD;46.469439;6.393875
5056;Attelwil;AG;47.25785;8.037848
5057;Reitnau;AG;47.25150413;8.035574639
5102;Rupperswil;AG;47.40377834;8.131703243
5103;Wildegg;AG;47.368434;8.165507927
5105;Auenstein;AG;47.418092;8.126777
5106;Veltheim AG;AG;47.430628;8.129397
5107;Schinznach-Dorf;AG;47.450352;8.130330258
1166;Perroy;VD;46.47019063;6.359026054
5108;Oberflachs;AG;47.435413;8.120325
5112;Thalheim AG;AG;47.437401;8.090244
5113;Holderbank AG;AG;47.430826;8.14388
5116;Schinznach-Bad;AG;47.425809;8.164999936
5245;Habsburg;AG;47.461516;8.185533
5246;Scherz;AG;47.446326;8.183993
5200;Brugg;AG;47.484179;8.206764
5210;Windisch;AG;47.47590396;8.222125938
1170;Aubonne;VD;46.49057858;6.385121202
5201;Brugg AG;AG;47.483799;8.20725
5212;Hausen AG;AG;47.459932;8.16511
5213;Villnachern;AG;47.47253178;8.162601749
5222;Umiken;AG;47.477264;8.187223
5223;Riniken;AG;47.49399154;8.18678605
5224;Unterbözberg;AG;47.465134;8.122303
5225;Oberbözberg;AG;47.499354;8.153792
5233;Stilli;AG;47.516216;8.194453993
5234;Villigen;AG;47.5295648;8.207279719
5235;Rüfenach;AG;47.503502;8.210087
5236;Remigen;AG;47.514841;8.176164
5237;Mönthal;AG;47.515083;8.134084
5242;Birr-Lupfig;AG;47.433034;8.211387
5243;Mülligen;AG;47.45017;8.237811
5244;Birrhard;AG;47.433918;8.241428
5078;Effingen;AG;47.492522;8.112964
5076;Bözen;AG;47.4965243;8.085846337
5077;Elfingen;AG;47.50759;8.097007
5079;Zeihen;AG;47.46958;8.089244
5075;Hornussen;AG;47.50127;8.063723
5070;Frick;AG;47.50969225;8.014176295
5072;Oeschgen;AG;47.516291;8.016105
5073;Gipf-Oberfrick;AG;47.49290691;7.996249102
5064;Wittnau;AG;47.477699;7.973801
5063;Wölflinswil;AG;47.46249515;8.000449213
5062;Oberhof;AG;47.439972;8.000675
5074;Eiken;AG;47.53711054;7.989215374
5300;Turgi;AG;47.48778216;8.25899576
5301;Siggenthal Station;AG;23.24585;108.209892
5303;Würenlingen;AG;47.53213;8.249260621
5304;Endingen;AG;47.53070369;8.290132361
1172;Bougy-Villars;VD;46.483594;6.348935
5305;Unterendingen;AG;47.54564;8.287957
5306;Tegerfelden;AG;47.562604;8.284845
5312;Döttingen;AG;47.56000372;8.253039396
5313;Klingnau;AG;47.58864871;8.250678629
5314;Kleindöttingen;AG;47.570997;8.247115
5315;Böttstein;AG;47.555672;8.225764
5316;Leuggern;AG;47.58002651;8.207978997
5317;Hettenschwil;AG;47.576704;8.198804
1173;Féchy;VD;46.47881227;6.372688143
5318;Mandach;AG;47.550629;8.18329
5322;Koblenz;AG;47.6043659;8.244870788
5400;Baden;AG;47.46512856;8.289657545
5408;Ennetbaden;AG;47.480363;8.322162
5401;Baden;AG;47.47433;8.306445
1174;Montherod;VD;46.491894;6.345857
5402;Baden;AG;47.46512856;8.289657545
5404;Baden;AG;47.47433;8.306445
5405;Baden;AG;47.46512856;8.289657545
5406;Baden;AG;47.46512856;8.289657545
5412;Gebenstorf;AG;47.48046904;8.247576934
5413;Birmenstorf AG;AG;47.456019;8.2404
5415;Nussbaumen AG;AG;47.4867;8.293214
5416;Kirchdorf AG;AG;47.498691;8.282601
1175;Lavigny;VD;46.499284;6.403955
5417;Untersiggenthal;AG;47.50672424;8.256476261
5420;Ehrendingen;AG;47.49435811;8.346856572
5423;Freienwil;AG;47.500853;8.317444
5425;Schneisingen;AG;47.52495653;8.361766692
5426;Lengnau AG;AG;47.525018;8.288422
5430;Wettingen;AG;47.46678817;8.341301535
1176;Saint-Livres;VD;46.516695;6.381852
5431;Wettingen Sonderd;AG;47.473518;8.3076
5432;Neuenhof;AG;47.44406642;8.325173657
5442;Fislisbach;AG;47.43751579;8.290790703
5443;Niederrohrdorf;AG;47.42011336;8.301405263
5444;Künten;AG;47.38597651;8.325406887
5445;Eggenwil;AG;47.370185;8.337094
5452;Oberrohrdorf;AG;47.42514095;8.320548512
5453;Remetschwil;AG;47.403811;8.321078
5454;Bellikon;AG;47.39159144;8.3494253
5502;Hunzenschwil;AG;47.38415985;8.122864024
5503;Schafisheim;AG;47.3737179;8.139241525
5504;Othmarsingen;AG;47.4015961;8.214691876
5505;Brunegg;AG;47.419239;8.21607
5506;Mägenwil;AG;47.41220619;8.233757694
5507;Mellingen;AG;47.4211587;8.274184741
5512;Wohlenschwil;AG;47.41674295;8.253930607
5522;Tägerig;AG;47.39998411;8.279295921
1180;Rolle;VD;46.45757408;6.33155552
5524;Nesselnbach;AG;47.377928;8.288029
5525;Fischbach-Göslikon;AG;47.368998;8.306164
5600;Lenzburg;AG;47.385567;8.180536633
5603;Staufen;AG;47.37868954;8.16009886
5604;Hendschiken;AG;47.384488;8.216108
5605;Dottikon;AG;47.38060086;8.242567297
5606;Dintikon;AG;47.36162908;8.221878084
5607;Hägglingen;AG;47.39003387;8.258288136
5608;Stetten AG;AG;47.401022;8.304382
5610;Wohlen AG;AG;47.350491;8.278694
5611;Anglikon;AG;47.36376;8.26404
5619;Büttikon;AG;47.314574;8.273555
5612;Villmergen;AG;47.35102739;8.241073436
5613;Hilfikon;AG;47.330412;8.244584
5614;Sarmenstorf;AG;47.31135036;8.252722259
5615;Fahrwangen;AG;47.28972192;8.243109809
5616;Meisterschwanden;AG;47.29694447;8.227536339
5617;Tennwil;AG;47.306311;8.221877
5618;Bettwil;AG;47.28805776;8.274749199
5620;Bremgarten AG;AG;47.357624;8.329926
5621;Zufikon;AG;47.344121;8.355828
1182;Gilly;VD;46.457345;6.300124
5622;Waltenschwil;AG;47.33409616;8.298948244
5623;Boswil;AG;47.29760284;8.308632727
5624;Bünzen;AG;47.32005634;8.322586658
5625;Kallern;AG;47.309045;8.289836
5626;Hermetschwil-Staffeln;AG;47.329823;8.339255
5627;Besenbüren;AG;47.308417;8.342063
5628;Aristau;AG;47.286906;8.364863
5630;Muri AG;AG;47.270836;8.331523
5632;Buttwil;AG;47.267594;8.311205
1183;Bursins;VD;46.45203122;6.286230864
5634;Merenschwand;AG;47.26274773;8.383945774
5636;Benzenschwil;AG;47.245797;8.35749
5637;Beinwil (Freiamt);AG;47.225732;8.331399
5642;Mühlau;AG;47.233177;8.388037
5643;Sins;AG;47.18607882;8.373139655
5644;Auw;AG;47.21480568;8.362525089
5645;Aettenschwil;AG;47.183296;8.363940542
1184;Vinzel;VD;46.439446;6.269118
5646;Abtwil;AG;47.169938;8.351345
5647;Oberrüti;AG;47.16682;8.397739
5702;Niederlenz;AG;47.40356723;8.170348464
5703;Seon;AG;47.34820398;8.157619315
5704;Egliswil;AG;47.351559;8.189607
5705;Hallwil;AG;47.326409;8.178663
5706;Boniswil;AG;47.3120405;8.190778244
5707;Seengen;AG;47.32926337;8.208857535
5708;Birrwil;AG;47.290524;8.196255
5712;Beinwil am See;AG;47.26508155;8.2052591
5722;Gränichen;AG;47.35154052;8.10677128
5723;Teufenthal AG;AG;47.323587;8.096723
5724;Dürrenäsch;AG;47.323379;8.154393
5725;Leutwil;AG;47.305936;8.170736
5726;Unterkulm;AG;47.31887227;8.103555679
5727;Oberkulm;AG;47.29839452;8.126003247
5728;Gontenschwil;AG;47.26750466;8.141171931
1185;Mont-sur-Rolle;VD;46.47536143;6.336313012
5732;Zetzwil;AG;47.288271;8.16201748
5733;Leimbach AG;AG;47.295491;8.188505
5734;Reinach AG;AG;47.260831;8.161962
5735;Pfeffikon;LU;47.243827;8.164853
5736;Burg AG;AG;47.232669;8.166391
5737;Menziken;AG;47.23602433;8.186587788
1186;Essertines-sur-Rolle;VD;46.484656;6.315795
5742;Kölliken;AG;47.33356574;8.021016648
5745;Safenwil;AG;47.31967394;7.986948051
5746;Walterswil SO;SO;47.328668;7.94371
1187;Saint-Oyens;VD;46.494458;6.299171
6000;Luzern;LU;47.04713582;8.325215362
1189;Saubraz;VD;46.515617;6.324991
1188;Gimel;VD;46.52668052;6.289369752
6002;Luzern Swisscom;LU;47.049541;8.30437
6003;Luzern;LU;47.04713582;8.325215362
6004;Luzern;LU;47.04713582;8.325215362
6005;Luzern;LU;47.04713582;8.325215362
1195;Dully-Bursinel;VD;46.431822;6.289946
6006;Luzern;LU;47.049545;8.304375
6010;Kriens;LU;47.02074957;8.258949547
6012;Obernau;LU;47.033384;8.255031
6013;Eigenthal;LU;47.017207;8.219494187
6014;Littau;LU;47.06066176;8.251503188
6015;Reussbühl;LU;47.065028;8.281367
6016;Hellbühl;LU;47.06646;8.202440495
6017;Ruswil;LU;47.0774783;8.135911811
6019;Sigigen;LU;47.064206;8.133496
6018;Buttisholz;LU;47.11423745;8.092298571
1196;Gland;VD;46.41975045;6.272911593
6020;Emmenbrücke;LU;47.041863;8.16457
6022;Grosswangen;LU;47.13347775;8.054898803
6023;Rothenburg;LU;47.10470743;8.263582002
6024;Hildisrieden;LU;47.14737085;8.231841167
6025;Neudorf;LU;47.17562744;8.210307198
1197;Prangins;VD;46.40070928;6.255107596
6026;Rain;LU;47.13162483;8.263140093
6027;Römerswil;LU;47.170303;8.253885
6028;Herlisberg;LU;47.197852;8.230507
6030;Ebikon;LU;47.07824747;8.331551076
6032;Emmen;LU;47.0865605;8.286260472
6033;Buchrain;LU;47.10174111;8.34796428
6034;Inwil;LU;47.12877057;8.368473876
6035;Perlen;LU;47.123109;8.37065667
6036;Dierikon;LU;47.09417544;8.3726949
6037;Root;LU;47.11129001;8.388556892
6038;Gisikon;LU;47.1239;8.402839
6042;Dietwil;AG;47.147907;8.395151
6043;Adligenswil;LU;47.0723234;8.368468818
6044;Udligenswil;LU;47.09101127;8.399697544
6045;Meggen;LU;47.05142281;8.372252849
6047;Kastanienbaum;LU;47.021619;8.331412418
6048;Horw;LU;47.01339591;8.310767576
6052;Hergiswil NW;NW;46.979422;8.257239
6053;Alpnachstad;OW;46.972378;8.284454695
6055;Alpnach;OW;46.93876;8.270385
6056;Kägiswil;OW;46.92166;8.26272
6060;Sarnen;OW;46.89844764;8.176482869
6068;Melchsee-Frutt;OW;46.773405;8.270147
6062;Wilen (Sarnen);OW;46.88066;8.224043
6063;Stalden (Sarnen);OW;46.886616;8.211209
6064;Kerns;OW;46.83984836;8.301374694
6066;St. Niklausen OW;OW;46.87474;8.281238
6067;Melchtal;OW;46.860868;8.279129226
6072;Sachseln;OW;46.83407043;8.24628669
6073;Flüeli-Ranft;OW;46.872876;8.269222
6074;Giswil;OW;46.83585279;8.118860648
6078;Bürglen OW;OW;46.792809;8.167077
6083;Hasliberg Hohfluh;BE;46.750395;8.175425
6084;Hasliberg;BE;46.746919;8.196211
6085;Hasliberg Goldern;BE;46.73958;8.198599
6086;Hasliberg Reuti;BE;46.732661;8.209552
6102;Malters;LU;47.04282767;8.190168234
6103;Schwarzenberg;LU;46.99973;8.182446
6105;Schachen LU;LU;47.03598;8.14518
1200;Genève;GE;46.20577413;6.14139354
6106;Werthenstein;LU;47.037715;8.10664
6110;Wolhusen;LU;47.05319473;8.056687078
6114;Steinhuserberg;LU;47.042049;8.0476
6112;Doppleschwand;LU;47.012996;8.050845
6113;Romoos;LU;47.000749;7.99756
6122;Menznau;LU;47.06737453;8.030453316
6123;Geiss;LU;47.090733;8.056316
6125;Menzberg;LU;47.036931;7.997141
6126;Daiwil;LU;47.09674;8.013274
6130;Willisau Stadt;LU;47.10194697;7.986122571
6132;Rohrmatt;LU;47.08295;7.98589
6133;Hergiswil b. Willisau;LU;47.06047;7.955306
6142;Gettnau;LU;47.13858481;7.96672315
6143;Ohmstal;LU;47.164099;7.952664
6144;Zell LU;LU;47.135116;7.919624
6145;Fischbach;LU;47.151788;7.905574
6146;Grossdietwil;LU;47.174836;7.89551
6147;Altbüron;LU;47.18971931;7.88425623
6152;Hüswil;LU;47.127547;7.906764
6153;Ufhusen;LU;47.116003;7.894168
6154;Hofstatt;LU;47.084495;7.914875
6156;Luthern;LU;47.05143457;7.907848718
6160;Entlebuch AVAG;LU;46.992149;8.06498
6162;Entlebuch;LU;46.97618588;8.107875516
6163;Ebnet;LU;47.023277;8.078457
6166;Hasle LU;LU;46.9495;8.073118
6167;Bramboden;LU;46.981365;7.989592
6170;Schüpfheim;LU;46.94706788;8.011499602
6173;Flühli;LU;46.849001;8.009836
6174;Sörenberg;LU;46.835401;8.010010042
6182;Escholzmatt;LU;46.91228373;7.940253658
6192;Wiggen;LU;46.562582;8.701810567
6196;Marbach LU;LU;46.880916;7.903986924
6197;Schangnau;BE;46.81116656;7.88341588
6203;Sempach Station;LU;47.11565;8.19442
6204;Sempach;LU;47.13947822;8.199093211
6205;Eich;LU;47.15990657;8.171343791
6206;Neuenkirch;LU;47.1034357;8.202902727
6207;Nottwil;LU;47.12788123;8.135527192
6208;Oberkirch;LU;47.154458;8.103327
6210;Sursee;LU;47.17767469;8.10426232
6211;Buchs LU;LU;47.201908;8.03691
6212;St. Erhard;LU;47.182899;8.07445
6213;Knutwil;LU;47.199397;8.070364
6214;Schenkon;LU;47.18099051;8.133752616
6215;Beromünster;LU;47.22038772;8.204867371
6216;Mauensee;LU;47.171292;8.063326
6217;Kottwil;LU;47.161734;8.044743
6218;Ettiswil;LU;47.15574753;8.029585091
6221;Rickenbach LU;LU;47.226961;8.146059
6222;Gunzwil;LU;47.1989738;8.178188848
6231;Schlierbach;LU;47.225811;8.118774
6232;Geuensee;LU;47.20181785;8.116534979
6233;Büron;LU;47.21355385;8.095230933
6234;Triengen;LU;47.23858104;8.080297157
6236;Wilihof;LU;47.225463;8.06467
6235;Winikon;LU;47.233223;8.045355
6242;Wauwil;LU;47.184353;8.026173
6243;Egolzwil;LU;47.177933;8.002326
6244;Nebikon;LU;47.19147592;7.980178453
6245;Ebersecken;LU;47.178769;7.935271
6246;Altishofen;LU;47.20094534;7.959210071
6247;Schötz;LU;47.16821732;7.987263166
6248;Alberswil;LU;47.147484;7.995759
6252;Dagmersellen;LU;47.21318039;8.010036102
6253;Uffikon;LU;47.217354;8.016272648
6260;Reiden;LU;47.23260122;7.962543594
6262;Langnau b. Reiden;LU;47.23096;7.96137
6263;Richenthal;LU;47.214777;7.92887094
6264;Pfaffnau;LU;47.22468797;7.885116541
6265;Roggliswil;LU;47.212478;7.874897
6274;Eschenbach LU;LU;47.125434;8.305217
6275;Ballwil;LU;47.14651489;8.337252957
6276;Hohenrain;LU;47.182179;8.316478
6277;Kleinwangen;LU;47.19474;8.293925
6280;Hochdorf;LU;47.16280835;8.291980088
6283;Baldegg;LU;47.18284;8.280701
6284;Gelfingen;LU;47.20982962;8.275648348
6285;Hitzkirch;LU;47.22285851;8.257590194
6289;Müswangen;LU;47.238829;8.291552
6286;Altwis;LU;47.238495;8.251632
6287;Aesch LU;LU;47.256949;8.24087
6288;Schongau;LU;47.267553;8.269489
6294;Ermensee;LU;47.222454;8.234542
6295;Mosen;LU;47.241369;8.226342
6300;Zug;ZG;47.14999395;8.523302136
6330;Cham 2;ZG;47.189063;8.444778
6301;Zug;ZG;47.171507;8.516215
6310;Zug;ZG;47.166191;8.51541
6313;Edlibach;ZG;47.171008;8.601741
6319;Allenwinden;ZG;47.164275;8.556395
6315;Morgarten;ZG;47.099325;8.59607498
6312;Steinhausen;ZG;47.19855353;8.487247453
6314;Unterägeri;ZG;47.12044665;8.577815426
6317;Oberwil b. Zug;ZG;47.149195;8.507437
6318;Walchwil;ZG;47.10847101;8.532647829
6331;Hünenberg;ZG;47.19126893;8.41967414
6332;Hagendorn;ZG;47.203513;8.432271
6340;Baar;ZG;47.19543532;8.537081334
6343;Rotkreuz;ZG;46.721361;8.924796
6344;Meierskappel;LU;47.118131;8.441346
6345;Neuheim;ZG;47.19947017;8.582787295
6353;Weggis;LU;47.03710016;8.442791881
6354;Vitznau;LU;47.01697089;8.491603903
6356;Rigi Kaltbad;LU;47.05327;8.466663311
6362;Stansstad;NW;46.98337139;8.356489999
6363;Obbürgen;NW;47.01862;8.377060371
6365;Kehrsiten;NW;46.977804;8.366925035
6370;Stans;NW;46.9588565;8.363377429
6372;Ennetmoos;NW;46.944006;8.321851
6373;Ennetbürgen;NW;46.99105518;8.411977379
6374;Buochs;NW;46.96494306;8.420086332
6375;Beckenried;NW;46.94219687;8.466780668
6376;Emmetten;NW;46.94553554;8.524219408
6377;Seelisberg;UR;46.964298;8.578728
6382;Büren NW;NW;46.93782;8.39593
6383;Dallenwil;NW;46.91736353;8.365001078
6386;Wolfenschiessen;NW;46.86267727;8.394544433
6387;Oberrickenbach;NW;46.881534;8.416657647
6388;Grafenort;OW;46.864478;8.364044723
6390;Engelberg;OW;46.81970727;8.43413831
6402;Merlischachen;SZ;47.066475;8.40931
6403;Küssnacht SZ;SZ;47.0833;8.43333
6404;Greppen;LU;47.054272;8.438309
6405;Immensee;SZ;47.101916;8.470780656
6410;Goldau;SZ;47.050272;8.551260664
6414;Oberarth;SZ;47.055475;8.53503
6415;Arth;SZ;47.05397912;8.530232492
6416;Steinerberg;SZ;47.061124;8.581931
6417;Sattel;SZ;47.07996466;8.631934618
6418;Rothenthurm;SZ;47.09853218;8.682868758
6422;Steinen;SZ;47.0517312;8.609583704
6423;Seewen SZ;SZ;47.02655;8.63237
6424;Lauerz;SZ;47.028379;8.580765
6430;Schwyz;SZ;47.02343912;8.674745122
6436;Ried (Muotathal);SZ;46.965792;8.813029
6432;Rickenbach SZ;SZ;47.01466;8.66817
6433;Stoos SZ;SZ;46.983261;8.66754
6434;Illgau;SZ;46.993808;8.739257
6438;Ibach;SZ;47.019333;8.651789402
6440;Brunnen;SZ;46.964425;8.585608804
6441;Rütli;UR;46.960846;8.580548329
6442;Gersau;SZ;47.00561441;8.527657306
6443;Morschach;SZ;46.972968;8.646539
6452;Sisikon;UR;46.935121;8.675936
6454;Flüelen;UR;46.91462849;8.646111023
6460;Altdorf UR;UR;46.886774;8.634912
6461;Isenthal;UR;46.906496;8.527364
6462;Seedorf UR;UR;46.879049;8.575295
6463;Bürglen UR;UR;46.902059;8.725177
6464;Spiringen;UR;46.87837707;8.843676387
6465;Unterschächen;UR;46.860436;8.790294
6466;Bauen;UR;46.929532;8.578579
6467;Schattdorf;UR;46.84934202;8.671403124
6469;Haldi b.Schattdorf;UR;46.848518;8.70369
6468;Attinghausen;UR;46.82823654;8.543748326
6472;Erstfeld;UR;46.81236378;8.599465297
6473;Silenen;UR;46.779799;8.714649
6474;Amsteg;UR;46.770879;8.670743
6475;Bristen;UR;46.766387;8.679373082
6476;Intschi;UR;46.768175;8.67665072
6482;Gurtnellen;UR;46.743485;8.629134
6484;Wassen;UR;46.71612;8.537272
6485;Meien;UR;46.726333;8.55156
6487;Göschenen;UR;46.66393083;8.498834122
6490;Andermatt;UR;46.62047114;8.631490104
6491;Realp;UR;46.585308;8.471704
6493;Hospental;UR;46.607466;8.562743
6500;Bellinzona;TI;46.19993203;9.022667507
6501;Bellinzona;TI;46.194461;9.024119
6503;Bellinzona;TI;46.20397;9.01588
6512;Giubiasco;TI;46.17260187;9.001057646
6513;Monte Carasso;TI;46.20479898;8.974455037
6514;Sementina;TI;46.18977859;8.970100677
6515;Gudo;TI;46.177528;8.945699
6516;Cugnasco;TI;46.19623191;8.913772572
6517;Arbedo-Castione;TI;46.213359;9.042192
6518;Gorduno;TI;46.221771;9.010103
6525;Gnosca;TI;46.238144;9.011152
6526;Prosito;TI;46.284644;8.983345978
6527;Lodrino;TI;46.28821645;8.949461419
6528;Camorino;TI;46.15773954;9.011986918
6532;Castione;TI;46.233591;9.029154837
6533;Lumino;TI;46.23828867;9.068236645
6534;San Vittore;GR;46.243717;9.09766
6535;Roveredo GR;GR;46.209708;9.142513
6537;Grono;GR;46.233134;9.168099
6523;Preonzo;TI;46.249537;8.967253
6524;Moleno;TI;46.266796;8.976909
6582;Pianezzo;TI;46.162378;9.045661
6583;Sant'Antonio;TI;46.17458;9.06352
6584;Carena;TI;46.160707;9.089760198
6549;Laura;GR;46.216894;9.09996744
6540;Castaneda;GR;46.25767;9.129054
6541;Santa Maria in Calanca;GR;46.278826;9.138212
6538;Verdabbio;GR;46.273373;9.19364
6542;Buseno;GR;46.27592307;9.103644417
6543;Arvigo;GR;46.31065173;9.093972396
6544;Braggio;GR;46.296808;9.131869
6545;Selma;GR;46.31975177;9.13029232
6546;Cauco;GR;46.33362782;9.122331519
6547;Augio;GR;46.370948;9.099526999
6548;Rossa;GR;46.38809452;9.126930887
6556;Leggia;GR;46.25024;9.180254
6565;S. Bernardino;GR;46.463069;9.190644
6557;Cama;GR;46.263596;9.202259
6558;Lostallo;GR;46.308569;9.223062
6562;Soazza;GR;46.354593;9.225325
6563;Mesocco;GR;46.44780915;9.201756789
6572;Quartino;TI;46.148466;8.877895158
6573;Magadino;TI;46.14766;8.881327
6574;Vira (Gambarogno);TI;46.12699134;8.860361002
6575;San Nazzaro;TI;46.134734;8.821099455
6576;Gerra (Gambarogno);TI;46.108196;8.739168
6577;Ranzo;TI;46.10893;8.788914
6578;Caviano;TI;46.101998;8.77719
6579;Piazzogna;TI;46.126212;8.833786
6571;Indemini;TI;46.09537797;8.842230706
6592;Sant'Antonino;TI;46.153242;8.974358
6593;Cadenazzo;TI;46.14661769;8.950137653
6594;Contone;TI;46.15027509;8.926074805
6595;Riazzino;TI;46.174235;8.90166
6596;Gordola;TI;46.18836081;8.863872757
6597;Agarone;TI;46.178445;8.906361
6598;Tenero-Contra;TI;46.185608;8.850189263
6599;Robasacco;TI;46.125285;8.910153426
6600;Locarno;TI;46.16973154;8.833300803
6601;Locarno;TI;46.170576;8.800394
6604;Locarno;TI;46.170027;8.77772
6605;Locarno;TI;46.184429;8.77615
6656;Golino;TI;46.178507;8.713393
6618;Arcegno;TI;46.163209;8.742228
6646;Contra;TI;46.178694;8.831582
6647;Mergoscia;TI;46.207097;8.830155
6661;Auressio;TI;46.199243;8.666061
6611;Mosogno;TI;46.193645;8.635282
6662;Russo;TI;46.202445;8.623299
6664;Vergeletto;TI;46.221851;8.60536
6663;Comologno;TI;46.198568;8.588103809
6632;Vogorno;TI;46.224399;8.879602
6631;Corippo;TI;46.235724;8.832395
6633;Lavertezzo;TI;46.267047;8.854139
6634;Brione (Verzasca);TI;46.30073;8.724063
6635;Gerra (Verzasca);TI;46.322392;8.80197
6636;Frasco;TI;46.351427;8.816727
6637;Sonogno;TI;46.356031;8.75941
6612;Ascona;TI;46.15513097;8.765970168
6613;Porto Ronco;TI;46.127194;8.729389618
6614;Brissago;TI;46.12667828;8.685903112
6616;Losone;TI;46.16892196;8.742113645
6622;Ronco sopra Ascona;TI;46.143831;8.727357
6644;Orselina;TI;46.18331403;8.79510504
6645;Brione sopra Minusio;TI;46.192943;8.811396
6648;Minusio;TI;46.1866825;8.81416004
6655;Verdasio;TI;46.169015;8.683046
6657;Palagnedra;TI;46.14306;8.63233
6658;Borgnone;TI;46.167043;8.60851
6659;Camedo;TI;46.155497;8.610644
6652;Tegna;TI;46.189102;8.743845
6653;Verscio;TI;46.19330298;8.728021582
6654;Cavigliano;TI;46.186784;8.708288
1201;Genève;GE;46.20577413;6.14139354
6670;Avegno;TI;46.203541;8.753742
6677;Moghegno-Aurigeno;TI;46.22841;8.669176583
6678;Coglio;TI;46.242997;8.682772639
6674;Riveo;TI;46.276508;8.634482055
6682;Linescio;TI;46.308066;8.576237
6683;Cerentino;TI;46.307507;8.546214
6685;Bosco/Gurin;TI;46.31717;8.481056
1202;Genève;GE;46.20577413;6.14139354
6684;Campo (Vallemaggia);TI;46.276133;8.463182
6690;Cavergno;TI;46.378468;8.535293
6692;Brontallo;TI;46.348263;8.635392291
6693;Broglio;TI;46.387799;8.666940888
6694;Prato-Sornico;TI;46.395691;8.654607
6695;Peccia;TI;46.394298;8.650260329
1203;Genève;GE;46.20577413;6.14139354
6696;Fusio;TI;46.424627;8.647652412
6672;Gordevio;TI;46.23254282;8.766491129
6673;Maggia;TI;46.26914187;8.680928988
6675;Cevio;TI;46.31053;8.598492
6676;Bignasco;TI;46.39504003;8.537269721
6702;Claro;TI;46.26598849;9.036936743
6703;Osogna;TI;46.325724;9.002293
1204;Genève;GE;46.20577413;6.14139354
6705;Cresciano;TI;46.297506;9.02997
6707;Iragna;TI;46.324642;8.940177
6710;Biasca;TI;46.36649114;9.022776276
6721;Ludiano;TI;46.418964;8.957496
6722;Corzoneso;TI;46.446706;8.933978
1205;Genève;GE;46.20577413;6.14139354
6716;Leontica;TI;46.45556;8.933244
6723;Prugiasco;TI;46.47014;8.906931918
6724;Ponto Valentino;TI;46.483467;8.933050878
6719;Aquila;TI;46.50203;8.95
6720;Campo (Blenio);TI;46.559544;8.851343
6713;Malvaglia;TI;46.43497153;9.038768842
1206;Genève;GE;46.208358;6.142701
6714;Semione;TI;46.399447;8.955044
6715;Dongio;TI;46.430843;8.947121229
6717;Dangio-Torre;TI;46.483673;8.976831
6718;Olivone;TI;46.53404756;8.879565646
6742;Pollegio;TI;46.365632;8.941122
6743;Bodio;TI;46.382783;8.910059
6745;Giornico;TI;46.38919557;8.862307399
1207;Genève;GE;46.20577413;6.14139354
6746;Lavorgo;TI;46.45469;8.828423887
6747;Chironico;TI;46.422523;8.815327
6760;Faido;TI;46.47359061;8.801225882
1208;Genève;GE;46.208358;6.142701
6772;Rodi-Fiesso;TI;46.489767;8.737997
6775;Ambrì;TI;46.509753;8.693877
6776;Piotta;TI;46.517071;8.691135131
6777;Quinto;TI;46.517893;8.712247
6780;Airolo;TI;46.54197553;8.599317226
6781;Villa Bedretto;TI;46.481932;8.477347635
6744;Personico;TI;46.357317;8.895436
6748;Anzonico;TI;46.441151;8.868183
6749;Sobrio;TI;46.402556;8.907852
6763;Mairengo;TI;46.501664;8.794939
1209;Genève;GE;46.20577413;6.14139354
6764;Chiggiogna;TI;46.454814;8.827329
6773;Prato (Leventina);TI;46.483926;8.757178
6774;Dalpe;TI;46.464531;8.762601
6802;Rivera;TI;46.12394123;8.904689982
6804;Bironico;TI;46.12616842;8.93313776
6803;Camignolo;TI;46.10414;8.948506
6807;Taverne;TI;46.020943;8.975823507
6808;Torricella-Taverne;TI;46.065172;8.922141
6814;Lamone-Cadempino;TI;46.034111;8.929713
6815;Melide;TI;45.95674921;8.944251534
6816;Bissone;TI;45.95187264;8.970270743
6817;Maroggia;TI;45.9380079;8.97359143
6818;Melano;TI;45.92114499;8.993422551
6822;Arogno;TI;45.95760248;8.992682472
6825;Capolago;TI;45.902062;8.982097
6826;Riva San Vitale;TI;45.91011557;8.963782748
6828;Balerna;TI;45.84304767;9.007881721
6830;Chiasso;TI;45.82882802;9.016543501
6839;Sagno;TI;45.855884;9.044769
6837;Caneggio;TI;45.87538;9.043916
6838;Cabbio;TI;45.89792;9.060281
6832;Pedrinate;TI;45.834282;9.017917422
6833;Vacallo;TI;45.84703441;9.036526592
6834;Morbio Inferiore;TI;45.84970229;9.02157453
1211;Genève 1;GE;46.19635;6.192039
6836;Serfontana;TI;45.844452;9.017
6835;Morbio Superiore;TI;45.863912;9.038387
6809;Medeglia;TI;46.120005;8.95331
6810;Isone;TI;46.132807;9.00657
6805;Mezzovico-Vira;TI;46.077721;8.928608579
6806;Sigirino;TI;46.083772;8.900494
6821;Rovio;TI;45.930667;8.997522
6823;Pugerna;TI;45.97779;8.978722
6850;Mendrisio;TI;45.88620726;8.99292833
6875;Monte;TI;45.880144;9.030069186
6873;Corteglia;TI;45.861849;8.994698
6852;Genestrerio;TI;45.85017408;8.957419927
6853;Ligornetto;TI;45.86310451;8.954616461
6854;S. Pietro;TI;45.859539;8.938084
6855;Stabio;TI;45.84764169;8.932916758
6862;Rancate;TI;45.87553924;8.970468982
6863;Besazio;TI;45.871315;8.952141
6864;Arzo;TI;45.88000067;8.939874189
6865;Tremona;TI;45.87576;8.955359
6866;Meride;TI;45.899469;8.946879
6867;Serpiano;TI;45.912081;8.929667
6872;Salorino;TI;45.872201;8.993752
6874;Castel San Pietro;TI;45.88231481;9.015304924
6877;Coldrerio;TI;45.8540201;8.986111188
6883;Novazzano;TI;45.84279737;8.978511719
6900;Lugano;TI;46.00785538;8.976010841
6901;Lugano;TI;46.002975;8.951305
6902;Lugano 2 Caselle;TI;46.00359;8.953397
6903;Lugano;TI;45.976785;8.946136
6904;Lugano 4 Caselle;TI;46.003251;8.951356
6905;Lugano 5 Autoposta;TI;46.003251;8.951356
6906;Lugano 6 Caselle;TI;46.003251;8.951356
6913;Carabbia;TI;45.969196;8.934643
6915;Pambio-Noranco;TI;45.98831;8.933685
6916;Grancia;TI;45.96838852;8.927552526
6917;Barbengo;TI;45.954571;8.913339
6919;Carabietta;TI;45.965768;8.902271
6921;Vico Morcote;TI;45.9335;8.923728
6928;Manno;TI;46.03071014;8.919418194
6929;Gravesano;TI;46.04201518;8.919057052
6930;Bedano;TI;46.05303106;8.91810598
6939;Arosio;TI;46.05036;8.881892878
6938;Vezio;TI;46.045303;8.881872
6937;Breno;TI;46.034023;8.889946171
6949;Comano;TI;46.04008273;8.956794481
6979;Brè sopra Lugano;TI;46.018902;9.000710291
6827;Brusino Arsizio;TI;45.928746;8.93922
6912;Pazzallo;TI;45.98433;8.942764
6914;Carona;TI;45.956782;8.932432
6918;Figino;TI;45.949794;8.905798
6922;Morcote;TI;45.935297;8.909132191
6924;Sorengo;TI;45.99986201;8.935552609
6925;Gentilino;TI;45.991113;8.932543
6926;Montagnola;TI;45.984702;8.916489387
6927;Agra;TI;45.966581;8.918768664
6932;Breganzona;TI;46.006404;8.924888
6933;Muzzano;TI;45.9978097;8.917234882
6934;Bioggio;TI;46.01699383;8.906031953
6935;Bosco Luganese;TI;46.027437;8.907482
6936;Cademario;TI;46.021932;8.891769
6942;Savosa;TI;46.01916433;8.944732486
6943;Vezia;TI;46.02492706;8.934931812
6948;Porza;TI;46.026709;8.948512
6950;Tesserete;TI;46.066124;8.967334696
6944;Cureglia;TI;46.03735137;8.944439947
6945;Origlio;TI;46.05130933;8.94485606
6946;Ponte Capriasca;TI;46.10564862;9.02137721
6947;Vaglio;TI;46.06066;8.957285
6954;Sala Capriasca;TI;46.066191;8.944915583
6953;Lugaggia;TI;46.082552;8.986174
6951;Insone;TI;46.091215;9.072088
6956;Lopagno;TI;46.068803;8.976898
6957;Roveredo TI;TI;46.075346;8.989563
6958;Bidogno;TI;46.085441;9.003723
6955;Cagiallo;TI;46.066989;8.991499893
6959;Cimadera;TI;46.07497;9.050399
6952;Canobbio;TI;46.03654193;8.96780904
6962;Viganello;TI;46.013421;8.97
6963;Pregassona;TI;46.029786;8.97
6964;Davesco-Soragno;TI;46.031189;8.978992
6965;Cadro;TI;46.04232727;8.994754313
6966;Villa Luganese;TI;46.049876;8.999098
6967;Dino;TI;46.037124;8.982743642
6968;Sonvico;TI;46.064149;9.004251
6974;Aldesago;TI;46.007977;8.978525
6976;Castagnola;TI;45.995616;8.978266799
6977;Ruvigliana;TI;46.004002;8.977858
6978;Gandria;TI;45.991934;8.998536055
6990;Cassina d'Agno;TI;45.991866;8.891471
6991;Neggio;TI;45.988876;8.87179
6992;Vernate;TI;45.99575856;8.880439787
6993;Iseo;TI;46.005285;8.876042
6994;Aranno;TI;46.019117;8.873829
6981;Bedigliora;TI;45.982545;8.856997423
6980;Castelrotto;TI;45.99283;8.838085
6999;Astano;TI;46.015091;8.816413
6986;Miglieglia;TI;46.03125665;8.849462296
6989;Purasca;TI;45.98035;8.84869
6995;Molinazzo;TI;45.988361;8.82915
6996;Ponte Cremenaga;TI;45.990735;8.8085
6997;Sessa;TI;46.003203;8.816283
6998;Termine;TI;45.99934;8.792089
6982;Agno;TI;46.00015581;8.900161713
6983;Magliaso;TI;45.98196925;8.888616627
6984;Pura;TI;45.979745;8.865617
6987;Caslano;TI;45.96987714;8.87952663
6988;Ponte Tresa;TI;45.97160347;8.858365916
7000;Chur;GR;46.85211073;9.530139939
7001;Chur;GR;46.850197;9.531171
7002;Chur;GR;46.85211073;9.530139939
7004;Chur;GR;46.85211073;9.530139939
7006;Chur;GR;46.85211073;9.530139939
7007;Chur;GR;46.85211073;9.530139939
7012;Felsberg;GR;46.85652582;9.462749387
7013;Domat/Ems;GR;46.819805;9.453258
7015;Tamins;GR;46.852027;9.403128
7017;Flims;GR;46.835457;9.272744365
7018;Flims Waldhaus;GR;46.836213;9.2796857
7023;Haldenstein;GR;46.881341;9.508404
7026;Maladers;GR;46.83973;9.568105
7031;Laax;GR;46.840652;9.229446
7032;Laax GR 2;GR;46.805649;9.25709
7050;Arosa;GR;46.76677061;9.667572852
7062;Passugg-Araschgen;GR;46.83018;9.547034
7063;Praden;GR;46.820717;9.58091
7064;Tschiertschen;GR;46.802799;9.605846
7074;Malix;GR;46.808705;9.521031
7075;Churwalden;GR;46.7892297;9.539405841
7076;Parpan;GR;46.769827;9.561777
7077;Valbella;GR;46.331968;8.991001776
7078;Lenzerheide/Lai;GR;46.72458;9.557853
7082;Vaz/Obervaz;GR;46.716761;9.537478
7083;Lantsch/Lenz;GR;46.706516;9.575677
7084;Brienz/Brinzauls;GR;46.680133;9.600881
7014;Trin;GR;46.86241767;9.330299743
7016;Trin Mulin;GR;46.832541;9.33982
7019;Fidaz;GR;46.854327;9.29017436
7027;Lüen;GR;46.839816;9.616764
7028;St. Peter;GR;46.84815074;9.659143903
7056;Molinis;GR;46.813667;9.644662
7029;Peist;GR;46.834484;9.686112
7057;Langwies;GR;46.823496;9.730882
7058;Litzirüti;GR;46.798432;9.702304
7104;Versam;GR;46.7770366;9.344862758
7106;Tenna;GR;46.747814;9.332006
7107;Safien;GR;46.684694;9.295101437
7109;Thalkirch;GR;46.630187;9.287330841
7122;Valendas;GR;46.78028;9.290919
7126;Castrisch;GR;46.771938;9.237851
7130;Ilanz;GR;46.77067127;9.192854651
7154;Ruschein;GR;46.788705;9.188509
7155;Ladir;GR;46.808884;9.192712
7151;Schluein;GR;46.788362;9.222634
7153;Falera;GR;46.814053;9.212173
7152;Sagogn;GR;46.798312;9.266171
7127;Sevgein;GR;46.757694;9.222427
7128;Riein;GR;46.74137;9.242135
7111;Pitasch;GR;46.722098;9.245651
7112;Duvin;GR;46.699322;9.237989
7113;Camuns;GR;46.703806;9.198037
7114;Uors (Lumnezia);GR;46.70046;9.183462
7115;Surcasti;GR;46.697735;9.17758
7116;Tersnaus;GR;46.654368;9.198063
7141;Luven;GR;46.757371;9.191162
7142;Cumbel;GR;46.733888;9.195986
7143;Morissen;GR;46.733453;9.18287
7144;Vella;GR;46.72132608;9.159270849
7145;Degen;GR;46.708475;9.151966
7146;Vattiz;GR;46.706586;9.15899
7147;Vignogn;GR;46.696419;9.144837
7148;Lumbrein;GR;46.66889;9.107238
7149;Vrin;GR;46.640562;9.0733
7137;Flond;GR;46.766669;9.157458
7138;Surcuolm;GR;46.751282;9.153103
7132;Vals;GR;46.57364794;9.130979156
7133;Obersaxen;GR;46.75639;9.11935
7134;Obersaxen Meierhof;GR;46.751329;9.103146
7135;Obersaxen Giraniga;GR;46.746202;9.083925
7136;Obers Friggahüs;GR;46.746077;9.09497
7156;Pigniu;GR;46.788147;9.141594
7157;Siat;GR;46.81427;9.154709
7158;Waltensburg/Vuorz;GR;46.801372;9.09061
7159;Andiast;GR;46.807079;9.099509
7162;Tavanasa;GR;46.745914;9.042105967
7163;Danis;GR;46.749167;9.046789028
7164;Dardin;GR;46.75836;9.049131
7165;Breil/Brigels;GR;46.784258;9.035315
7166;Trun;GR;46.74041831;8.981772608
7168;Schlans;GR;46.760848;9.000496
7167;Zignau;GR;46.729676;8.996107258
7172;Rabius;GR;46.669386;8.943256477
7175;Sumvitg;GR;46.706246;8.943889
7174;S. Benedetg;GR;46.735342;8.94004
7180;Disentis/Mustér;GR;46.70362;8.85141
7182;Cavardiras;GR;46.710114;8.884477
7183;Mompé Medel;GR;46.690221;8.849189
7184;Medel (Lucmagn);GR;46.689735;8.867362663
7185;Platta;GR;46.65;8.85
1212;Grand-Lancy;GE;46.182809;6.1205
7186;Segnas;GR;46.69462;8.82853
7187;Camischolas;GR;46.679624;8.765048
7189;Rueras;GR;46.80912;8.660912903
7188;Sedrun;GR;46.684719;8.784412011
7173;Surrein;GR;46.722805;8.95137
7176;Cumpadials;GR;46.722971;8.923641
7201;Untervaz Bahnhof;GR;46.90913;9.54935
7203;Trimmis;GR;46.89270408;9.595587574
7202;Says;GR;46.896267;9.599888
7204;Untervaz;GR;46.92057946;9.516337339
7205;Zizers;GR;46.93634296;9.571308361
7206;Igis;GR;46.95726497;9.581424735
7208;Malans;GR;46.983827;9.580641
7212;Seewis im Prättigau;GR;46.979916;9.62901632
7213;Valzeina;GR;46.943326;9.610999
7214;Grüsch;GR;46.96612965;9.644500982
7215;Fanas;GR;46.998182;9.683381
7220;Schiers;GR;46.9923214;9.746718105
7228;Schuders;GR;46.977748;9.732200469
7226;Stels;GR;46.965664;9.714889
7222;Mittellunden;GR;46.946086;9.714973
7223;Buchen;GR;46.941365;9.715855
7224;Putz;GR;46.925183;9.744641
7231;Pragg-Jenaz;GR;46.940034;9.708731
7232;Furna;GR;46.924796;9.662786
7233;Jenaz;GR;46.92208;9.704602
7235;Fideris;GR;46.889431;9.739223
7240;Küblis;GR;46.9262819;9.798626706
1213;Petit-Lancy;GE;46.182532;6.103622
7242;Luzein;GR;46.946045;9.75474
7243;Pany;GR;46.935896;9.762456158
7244;Gadenstätt;GR;46.941971;9.796782
7245;Ascharina;GR;46.94621;9.79955466
7246;St. Antönien Ascharina;GR;46.979184;9.845202
7241;Conters im Prättigau;GR;46.886021;9.789309
7247;Saas;GR;46.91473;9.853111
7249;Serneus;GR;46.872671;9.827038295
7250;Klosters;GR;46.866431;9.862788898
7252;Klosters Dorf;GR;46.883239;9.859316474
7260;Davos;GR;46.833739;9.843882073
7265;Davos Wolfgang;GR;46.832733;9.85376
7270;Davos Platz;GR;46.875889;9.821002904
7272;Davos Clavadel;GR;35.346291;109.253471
7276;Davos Frauenkirch;GR;46.768625;9.800568
7277;Davos Glaris;GR;46.741795;9.778487
7278;Davos Monstein;GR;46.713588;9.768866
7302;Landquart;GR;46.949097;9.642497557
7303;Mastrils;GR;46.962152;9.532212
7304;Maienfeld;GR;47.02711178;9.562999885
7306;Fläsch;GR;47.038155;9.533126
7307;Jenins;GR;47.005677;9.570687
7310;Bad Ragaz;SG;46.99681177;9.473752549
7317;Valens;SG;46.947531;9.457065436
7314;Vadura;SG;46.95745;9.484759
7315;Vättis;SG;46.919602;9.42961986
7312;Pfäfers;SG;46.943229;9.413068
7313;St. Margrethenberg;SG;46.980074;9.51014
7320;Sargans;SG;47.05560494;9.449253175
7325;Schwendi;SG;47.006817;9.362531
7326;Weisstannen;SG;46.982151;9.329746921
7323;Wangs;SG;47.033664;9.430173205
7324;Vilters-Wangs;SG;47.011163;9.449856899
1214;Vernier;GE;46.21074079;6.094441174
7402;Bonaduz;GR;46.80520561;9.371363429
7403;Rhäzüns;GR;46.78617301;9.392623135
7404;Feldis/Veulden;GR;46.79458;9.4385
7405;Rothenbrunnen;GR;46.773149;9.421413
7408;Cazis;GR;46.73714966;9.427083602
7411;Sils im Domleschg;GR;46.69076483;9.465336793
1215;Genève;GE;46.20577413;6.14139354
7412;Scharans;GR;46.716821;9.482697
7413;Fürstenaubruck;GR;46.719161;9.449821174
7414;Fürstenau;GR;46.719327;9.44858
7415;Rodels;GR;46.730317;9.445764
7416;Almens;GR;46.740537;9.476471
7417;Paspels;GR;46.750287;9.45053
7407;Trans;GR;46.7645701;9.4604854
7418;Tumegl/Tomils;GR;46.761734;9.443614
7419;Scheid;GR;46.781235;9.462228
7430;Thusis;GR;46.68853157;9.433259837
7425;Masein;GR;46.697204;9.424091
7426;Flerden;GR;46.694272;9.397797
7427;Urmein;GR;46.690182;9.401791
7428;Tschappina;GR;46.678705;9.361634
1216;Cointrin;GE;46.210896;6.118059501
7421;Summaprada;GR;47.227396;8.817036
7422;Tartar;GR;46.71982;9.419231
7423;Sarn;GR;46.711683;9.386326
7424;Präz;GR;46.746451;9.398235
7431;Mutten;GR;46.671192;9.490902
7432;Zillis-Reischen;GR;46.63344;9.450904397
1217;Meyrin;GE;46.23223714;6.078872826
7433;Donat;GR;46.613727;9.357231
7434;Sufers;GR;46.565191;9.368257
7435;Splügen;GR;46.54251271;9.313706248
7436;Medels im Rheinwald;GR;46.523467;9.282510103
7437;Nufenen;GR;46.539976;9.241223
7438;Hinterrhein;GR;46.523105;9.181279
7440;Andeer;GR;46.58586104;9.418197339
7442;Clugin;GR;46.614912;9.412748
7443;Pignia;GR;46.608425;9.45446
7444;Ausserferrera;GR;46.551972;9.458484
7445;Innerferrera;GR;46.514225;9.440155
7446;Campsut-Cröt;GR;46.478093;9.485535
7447;Avers;GR;46.472754;9.513146
7448;Juf;GR;46.455528;9.589558893
7450;Tiefencastel;GR;46.64497322;9.613686952
7458;Mon;GR;46.649644;9.551489
7459;Stierva;GR;46.660854;9.529577
7451;Alvaschein;GR;46.678386;9.549418
7452;Cunter;GR;46.615578;9.604177
7453;Tinizong-Rona;GR;46.583344;9.61660493
7454;Rona;GR;46.548493;9.616236264
7455;Mulegns;GR;46.511212;9.618076
7456;Sur;GR;46.497425;9.64815
7457;Bivio;GR;46.4577696;9.662314683
7460;Savognin;GR;46.58139397;9.602884583
7462;Salouf;GR;46.615279;9.548965
7463;Riom-Parsonz;GR;46.621761;9.582544449
7464;Parsonz;GR;46.609123;9.572276
7472;Surava;GR;46.659212;9.617022
1218;Le Grand-Saconnex;GE;46.23577998;6.118976671
7473;Alvaneu Bad;GR;46.66818;9.645475
7477;Filisur;GR;46.651344;9.684457
7482;Bergün/Bravuogn;GR;46.568916;9.777546553
7484;Latsch;GR;46.633094;9.747930284
7492;Alvaneu;GR;46.686067;9.62627355
7493;Schmitten GR;GR;46.70333;9.673491
1219;Le Lignon;GE;46.191968;6.121878744
7494;Wiesen GR;GR;46.709557;9.705943
7500;St. Moritz;GR;46.49032649;9.817593588
7502;Bever;GR;46.54297548;9.801153066
7503;Samedan;GR;46.4658444;9.858220908
7504;Pontresina;GR;46.44112056;9.958451008
7505;Celerina/Schlarigna;GR;46.505206;9.842515
7512;Champfèr;GR;46.459072;9.795370797
7513;Silvaplana;GR;46.46258294;9.786743063
7514;Sils/Segl Maria;GR;46.428766;9.764172
7515;Sils im Engadin/Segl;GR;46.431325;9.759775
7516;Maloja;GR;46.311052;9.779068974
7517;Plaun da Lej;GR;46.420315;9.72656
7522;La Punt-Chamues-ch;GR;46.55081551;9.931067578
7523;Madulain;GR;46.545509;9.965523
7524;Zuoz;GR;46.56305442;9.981189965
7525;S-chanf;GR;46.62493508;9.99190043
7526;Cinuos-chel;GR;46.64001;10.02166
7527;Brail;GR;46.642895;10.03161368
7530;Zernez;GR;46.67138477;10.12290469
7532;Tschierv;GR;46.640424;10.303426
7533;Fuldera;GR;46.605615;10.354108
7534;Lü;GR;46.629262;10.37716
7535;Valchava;GR;46.61526;10.381365
7536;Sta. Maria V. M.;GR;46.601148;10.423628
7537;Müstair;GR;46.58771594;10.35916753
7542;Susch;GR;46.750451;10.020701
7543;Lavin;GR;46.774763;10.108136
7545;Guarda;GR;46.802669;10.15156
7546;Ardez;GR;46.775559;10.18646
7550;Scuol;GR;46.73460718;10.32764543
7551;Ftan;GR;46.82585176;10.22915034
7552;Vulpera;GR;46.781321;10.27761469
7553;Tarasp;GR;46.754653;10.251348
7554;Sent;GR;46.82514598;10.34181919
7556;Ramosch;GR;46.861274;10.363145
1220;Les Avanchets;GE;46.221174;6.107849
7557;Vnà;GR;46.84259;10.36479
7558;Strada;GR;46.862493;10.435203
7559;Tschlin;GR;46.89173;10.430914
7560;Martina;GR;46.882629;10.46676816
7562;Samnaun-Compatsch;GR;46.959915;10.397504
7563;Samnaun;GR;46.944497;10.361301
7602;Casaccia;GR;46.382038;9.666679286
1222;Vésenaz;GE;46.2314;6.199607186
7603;Vicosoprano;GR;46.348103;9.640319
7604;Borgonovo;GR;46.351341;9.598500593
7605;Stampa;GR;46.354103;9.615624
7606;Promontogno;GR;46.315632;9.576655
7610;Soglio;GR;46.369744;9.535879
7608;Castasegna;GR;46.344886;9.517154
7742;Poschiavo;GR;46.35254742;10.06173146
7743;Brusio;GR;46.255624;10.119972
7747;Viano;GR;46.236462;10.19617728
7744;Campocologno;GR;46.233319;10.12624513
7710;Ospizio Bernina;GR;46.424006;10.0326596
7741;S. Carlo GR;GR;46.35791;10.069044
7745;Li Curt;GR;46.310654;10.063312
7746;Le Prese;GR;46.302017;10.08404231
1223;Cologny;GE;46.21764993;6.185283333
7748;Campascio;GR;46.251686;10.11234461
8000;Zürich;ZH;47.360508;8.475219
8001;Zürich;ZH;47.38282396;8.530806726
8002;Zürich;ZH;47.37706;8.53955
8003;Zürich;ZH;47.37706;8.53955
8004;Zürich;ZH;47.38282396;8.530806726
1224;Chêne-Bougeries;GE;46.19355985;6.181502641
8005;Zürich;ZH;47.38282396;8.530806726
8006;Zürich;ZH;47.37706;8.53955
8008;Zürich;ZH;47.37706;8.53955
8010;Zürich;ZH;47.369091;8.53801
1225;Chêne-Bourg;GE;46.19739082;6.196823934
8020;Zürich 1;ZH;47.347652;8.521137
8016;Zürich 16 Zust;ZH;47.369148;8.540992
8080;Zürich 80;ZH;47.347652;8.521137
1226;Thônex;GE;46.19607055;6.204421635
8021;Zürich 1 Sihlpost;ZH;47.369148;8.540992
8022;Zürich;ZH;47.38282396;8.530806726
8023;Zürich;ZH;47.38282396;8.530806726
1227;Carouge GE;GE;46.180452;6.145072
8024;Zürich;ZH;47.38282396;8.530806726
8026;Zürich;ZH;47.38282396;8.530806726
8027;Zürich;ZH;47.38282396;8.530806726
8030;Zürich;ZH;47.369091;8.53801
8031;Zürich;ZH;47.38282396;8.530806726
8032;Zürich;ZH;47.38282396;8.530806726
8033;Zürich;ZH;47.38282396;8.530806726
8034;Zürich;ZH;47.38282396;8.530806726
8035;Zürich;ZH;47.369091;8.53801
8036;Zürich;ZH;47.38282396;8.530806726
8037;Zürich;ZH;47.39698;8.52301
8038;Zürich;ZH;47.38282396;8.530806726
8039;Zürich;ZH;47.369091;8.53801
8040;Zürich;ZH;47.38282396;8.530806726
8041;Zürich;ZH;47.38282396;8.530806726
8042;Zürich;ZH;47.38282396;8.530806726
8043;Zürich;ZH;47.369091;8.53801
8044;Zürich;ZH;47.38282396;8.530806726
8045;Zürich;ZH;47.38282396;8.530806726
8046;Zürich;ZH;47.38282396;8.530806726
8047;Zürich;ZH;47.38282396;8.530806726
8048;Zürich;ZH;47.38282396;8.530806726
8049;Zürich;ZH;47.38282396;8.530806726
8050;Zürich;ZH;47.38282396;8.530806726
1228;Plan-les-Ouates;GE;46.16394806;6.118843064
8051;Zürich;ZH;47.38282396;8.530806726
8052;Zürich;ZH;47.38282396;8.530806726
8053;Zürich;ZH;47.38282396;8.530806726
8055;Zürich;ZH;47.38282396;8.530806726
8057;Zürich;ZH;47.38282396;8.530806726
8058;Zürich;ZH;47.38282396;8.530806726
1231;Conches;GE;46.188855;6.17799
8061;Zürich;ZH;47.369091;8.53801
8063;Zürich;ZH;47.38282396;8.530806726
8064;Zürich;ZH;47.398201;8.48525
8065;Zürich;ZH;47.38282396;8.530806726
8088;Zürich Jelmoli;ZH;47.3461;8.51975
8090;Zürich;ZH;47.369091;8.53801
1232;Confignon;GE;46.17423625;6.088788861
8091;Zürich;ZH;47.369091;8.53801
8092;Zürich;ZH;47.369091;8.53801
8093;Zürich;ZH;47.38282396;8.530806726
8099;Zürich;ZH;47.369091;8.53801
8102;Oberengstringen;ZH;47.41023174;8.466061023
8103;Unterengstringen;ZH;47.40977393;8.437201579
8104;Weiningen ZH;ZH;47.418226;8.407152
8105;Regensdorf;ZH;47.43987625;8.471423078
1233;Bernex;GE;46.1784683;6.068150544
8106;Regensdorf 2;ZH;47.451469;8.46381
8107;Buchs ZH;ZH;47.454547;8.431403
8108;Dällikon;ZH;47.43938052;8.432509118
8112;Otelfingen;ZH;47.46440975;8.390077952
8113;Boppelsen;ZH;47.462198;8.399753
8114;Dänikon;ZH;47.440972;8.405147
8115;Hüttikon;ZH;47.440098;8.388277
5436;Würenlos;AG;47.44724498;8.363803504
8117;Fällanden;ZH;47.36952457;8.635698676
8121;Benglen;ZH;47.360535;8.633565
8122;Binz;ZH;47.357367;8.627625
8123;Ebmatingen;ZH;47.350505;8.643765
8124;Maur;ZH;47.33607622;8.660079873
8125;Zollikerberg;ZH;47.346399;8.601511
8126;Zumikon;ZH;47.33415314;8.626259899
8127;Forch;ZH;47.32535;8.650612
8132;Hinteregg;ZH;47.294239;8.696646
8133;Esslingen;ZH;47.287265;8.71063
8134;Adliswil;ZH;47.30935896;8.521348013
1234;Vessy;GE;46.171975;6.15828
8135;Langnau am Albis;ZH;47.27974414;8.530159098
8136;Gattikon;ZH;47.284559;8.550127
8143;Uetliberg;ZH;47.320306;8.490293
8142;Uitikon;ZH;47.366404;8.458445
8152;Glattbrugg;ZH;47.403369;8.560036312
8153;Rümlang;ZH;47.44711515;8.529479775
1236;Cartigny;GE;46.177062;6.02879
8154;Oberglatt;ZH;47.477614;8.53229
8155;Niederhasli;ZH;47.46881271;8.490403198
8156;Oberhasli;ZH;47.465512;8.500062
8157;Dielsdorf;ZH;47.47646366;8.45454285
8158;Regensberg;ZH;47.482424;8.430073
8162;Steinmaur;ZH;47.49770731;8.44341612
8164;Bachs;ZH;47.528083;8.42938
8165;Schöfflisdorf;ZH;47.50368941;8.419195631
1237;Avully;GE;46.16748616;5.99822843
8166;Niederweningen;ZH;47.50291175;8.375120474
8172;Niederglatt;ZH;47.492037;8.498897
8173;Neerach;ZH;47.50987324;8.475500329
8174;Stadel;ZH;47.53797451;8.470234319
8175;Windlach;ZH;47.528796;8.464355191
8180;Bülach;ZH;47.52804237;8.540821246
8181;Höri;ZH;47.50749638;8.50253879
8182;Hochfelden;ZH;47.52842101;8.509057392
1239;Collex-Bossy;GE;46.275893;6.117638
8184;Bachenbülach;ZH;47.50181254;8.545650466
8185;Winkel;ZH;47.48602899;8.558499034
8192;Glattfelden;ZH;47.56063853;8.496448122
8193;Eglisau;ZH;47.57333367;8.526188557
8194;Hüntwangen;ZH;47.593596;8.496619
8195;Wasterkingen;ZH;47.589588;8.472177
8196;Wil ZH;ZH;47.606998;8.492187
8197;Rafz;ZH;47.61313142;8.543641625
8200;Schaffhausen;SH;47.71569684;8.641221951
1241;Puplinge;GE;46.21082563;6.231986225
8201;Schaffhausen;SH;47.71569684;8.641221951
8202;Schaffhausen;SH;47.695304;8.631561
8203;Schaffhausen;SH;47.71569684;8.641221951
8204;Schaffhausen;SH;47.71569684;8.641221951
8205;Schaffhausen;SH;47.695304;8.631561
1242;Satigny;GE;46.21407766;6.03656499
8207;Schaffhausen;SH;47.71569684;8.641221951
8208;Schaffhausen;SH;47.695304;8.631561
8219;Trasadingen;SH;47.669676;8.424761
8228;Beggingen;SH;47.765635;8.544145
8231;Hemmental;SH;47.736128;8.564885
8234;Stetten SH;SH;47.736573;8.657319
8235;Lohn SH;SH;47.751666;8.656876
8236;Opfertshofen SH;SH;47.752763;8.642789
1243;Presinge;GE;46.218979;6.259671
8242;Bibern SH;SH;47.76454;8.668119
8243;Altdorf SH;SH;47.787276;8.6395
8239;Dörflingen;SH;47.709017;8.714232
8212;Neuhausen am Rheinfall;SH;47.665162;8.599941087
8213;Neunkirch;SH;47.68203663;8.512004698
8214;Gächlingen;SH;47.71720264;8.499357025
1244;Choulex;GE;46.226117;6.221099
8215;Hallau;SH;47.70047697;8.443278096
8216;Oberhallau;SH;47.710596;8.474207
8217;Wilchingen;SH;47.66321484;8.478022611
8218;Osterfingen;SH;47.670086;8.482015332
8222;Beringen;SH;47.70442548;8.57701896
8223;Guntmadingen;SH;47.67909;8.552628
8224;Löhningen;SH;47.70334186;8.546730663
8225;Siblingen;SH;47.721727;8.52301
8226;Schleitheim;SH;47.74867022;8.494661706
1245;Collonge-Bellerive;GE;46.249268;5.937532
8232;Merishausen;SH;47.759984;8.600857
8233;Bargen SH;SH;47.790855;8.576867
8240;Thayngen;SH;47.74526448;8.707805337
8241;Barzheim;SH;47.760055;8.720901
8245;Feuerthalen;ZH;47.68577888;8.65188614
8246;Langwiesen;ZH;47.68394;8.663105
8247;Flurlingen;ZH;47.68237279;8.636873382
8252;Schlatt TG;TG;47.663957;8.665727
1246;Corsier GE;GE;46.261396;6.213982
8254;Basadingen-Schlattingen;TG;47.665489;8.752602543
8259;Kaltenbach;TG;47.644722;8.815976175
8253;Bezirk Diessenhofen;TG;47.68104651;8.744977766
8255;Schlattingen;TG;47.667817;8.748116466
8260;Stein am Rhein;SH;47.66659814;8.858005486
1247;Anières;GE;46.27469493;6.233051499
8261;Hemishofen;SH;47.685952;8.839314
8262;Ramsen;SH;47.70483141;8.814893223
8263;Buch SH;SH;47.714271;8.778632
8264;Eschenz;TG;47.63583435;8.872018214
8265;Mammern;TG;47.641861;8.918147
8266;Steckborn;TG;47.65824422;8.990803595
8267;Berlingen;TG;47.664401;9.023712
8268;Mannenbach-Salenst;TG;47.659369;9.054448
8272;Ermatingen;TG;47.65608302;9.09207067
8273;Triboltingen;TG;47.661895;9.10796
1248;Hermance;GE;46.29356578;6.24455471
8274;Tägerwilen;TG;47.64786456;9.132431405
8280;Kreuzlingen;TG;47.63974577;9.172997371
8301;Glattzentrum;ZH;47.408501;8.594175
8302;Kloten;ZH;47.45800746;8.585378262
1251;Gy;GE;46.245581;6.267874
8303;Bassersdorf;ZH;47.44037945;8.630548609
8304;Wallisellen;ZH;47.41737099;8.594983806
8305;Dietlikon;ZH;47.42393834;8.615410363
8306;Brüttisellen;ZH;47.440414;8.635737451
8307;Effretikon;ZH;47.434971;8.682287034
8315;Lindau;ZH;47.44412409;8.682436076
8308;Illnau-Effretikon;ZH;47.385014;8.728680517
8309;Nürensdorf;ZH;47.45749127;8.649320031
8310;Kemptthal;ZH;47.448444;8.698245606
1252;Meinier;GE;46.2430108;6.234925817
8312;Winterberg ZH;ZH;47.457504;8.685641
8311;Brütten;ZH;47.47481375;8.672527751
8314;Kyburg;ZH;47.452707;8.748518
8130;Zumikon Y. Rocher;ZH;47.329464;8.623837
8320;Fehraltorf;ZH;47.38729056;8.750090427
8489;Wildberg;ZH;47.419259;8.819831
8322;Madetswil;ZH;47.409672;8.79097
8330;Pfäffikon;ZH;47.36732;8.795583
1253;Vandoeuvres;GE;46.21897486;6.203494081
8331;Auslikon;ZH;47.34325;8.807345
8332;Russikon;ZH;47.40114943;8.787898234
8335;Hittnau;ZH;47.36628554;8.829368345
8340;Hinwil;ZH;47.30148131;8.852915565
8342;Wernetshausen;ZH;47.300698;8.866892795
8344;Bäretswil;ZH;47.33769352;8.872318242
8345;Adetswil;ZH;47.338177;8.847151
8352;Räterschen;ZH;47.50259669;8.808091259
1254;Jussy;GE;46.23967;6.278012
8353;Elgg;ZH;47.49137959;8.864740641
8354;Hofstetten ZH;ZH;47.473501;8.855566
8355;Aadorf;TG;47.49315671;8.910367396
8356;Ettenhausen TG;TG;47.48056;8.905244
8357;Guntershausen;TG;47.47188;8.92446
8360;Eschlikon;TG;47.458107;8.962208
8362;Balterswil;TG;47.449483;8.929924
8363;Bichelsee;TG;47.448314;8.900608648
1255;Veyrier;GE;46.17163089;6.166665199
8370;Sirnach;TG;47.45452946;9.00231419
8372;Wiezikon b.Sirnach;TG;47.45178;8.980261
8374;Oberwangen TG;TG;47.430317;8.961124
8376;Fischingen;TG;47.415786;8.957293
1256;Troinex;GE;46.15883839;6.150849424
8400;Winterthur;ZH;47.4967529;8.734308291
1257;La Croix-de-Rozon;GE;46.143149;6.113698
8401;Winterthur;ZH;47.49853;8.73299
8402;Winterthur;ZH;47.4967529;8.734308291
8404;Winterthur;ZH;47.4967529;8.734308291
8405;Winterthur;ZH;47.4967529;8.734308291
1258;Perly;GE;46.155963;6.084668
8406;Winterthur;ZH;47.4967529;8.734308291
8408;Winterthur;ZH;47.4967529;8.734308291
8409;Winterthur;ZH;47.4967529;8.734308291
8410;Winterthur;ZH;47.499882;8.72616
8411;Winterthur;ZH;47.4967529;8.734308291
8412;Aesch b.Neftenbach;ZH;47.541797;8.681234
8413;Neftenbach;ZH;47.53754415;8.666686133
8414;Buch am Irchel;ZH;47.534724;8.976368
8415;Berg am Irchel;ZH;47.56165;8.592867
1260;Nyon;VD;46.38635168;6.226237398
8416;Flaach;ZH;47.5846989;8.605300533
8418;Schlatt ZH;ZH;47.485415;8.76274
8422;Pfungen;ZH;47.51119013;8.642569218
8421;Dättlikon;ZH;47.525957;8.622394
8423;Embrach-Embraport;ZH;47.520445;8.59414
8424;Embrach;ZH;47.50850914;8.597627677
8425;Oberembrach;ZH;47.488251;8.633648
8426;Lufingen;ZH;47.48336437;8.593519512
8427;Rorbas-Freienstein;ZH;47.53366;8.572941
8428;Teufen ZH;ZH;47.549358;8.56605
8187;Weiach;ZH;47.555677;8.439356
5466;Kaiserstuhl;AG;47.563979;8.41681
5467;Fisibach;AG;47.556832;8.404164
5332;Rekingen AG;AG;47.566613;8.277489
5330;Zurzach;AG;47.595567;8.292674
5323;Rietheim;AG;47.598566;8.269025
5464;Rümikon;AG;47.559805;8.378973
5465;Mellikon;AG;47.563315;8.345048
5463;Wislikofen;AG;47.552083;8.363365
5462;Siglistorf;AG;47.5432;8.37999
5333;Baldingen;AG;47.554707;8.313637
5334;Böbikon;AG;47.549194;8.332774
8442;Hettlingen;ZH;47.54952097;8.706380137
8444;Henggart;ZH;47.56245712;8.683828339
8447;Dachsen;ZH;47.66040609;8.624826291
8248;Laufen-Uhwiesen;ZH;47.666043;8.633337645
8450;Andelfingen;ZH;47.59283972;8.67559585
8453;Alten;ZH;47.60052;8.650642313
8451;Kleinandelfingen;ZH;47.601506;8.670316
8452;Adlikon;ZH;47.582147;8.702667
8457;Humlikon;ZH;47.572748;8.674397
8458;Dorf;ZH;47.569517;8.64826
8459;Volken;ZH;47.574892;8.627203
8454;Buchberg;SH;47.575954;8.555935
8455;Rüdlingen;SH;47.583068;8.568343
8460;Marthalen;ZH;47.61820924;8.638310304
8464;Ellikon am Rhein;ZH;47.6048;8.600496
8461;Oerlingen;ZH;47.62343;8.676005
8465;Rudolfingen;ZH;47.640425;8.67333
8466;Trüllikon;ZH;47.641185;8.685164
8462;Rheinau;ZH;47.62925483;8.614540614
8463;Benken ZH;ZH;47.654103;8.641886
8472;Seuzach;ZH;47.53424457;8.726233642
8474;Dinhard;ZH;47.55624;8.763356
8475;Ossingen;ZH;47.61282492;8.721289217
8476;Unterstammheim;ZH;47.646451;8.789725
8477;Oberstammheim;ZH;47.62739797;8.804001593
8471;Rutschwil-Dägerlen;ZH;47.562198;8.72403
1277;Borex;VD;46.38099731;6.179051184
8478;Thalheim an der Thur;ZH;47.578346;8.744332
8479;Altikon;ZH;47.574943;8.778956
8467;Truttikon;ZH;47.627455;8.728055
8468;Guntalingen;ZH;47.6239;8.764958
8482;Sennhof;ZH;47.468268;8.757333
8483;Kollbrunn;ZH;47.447664;8.784904567
8484;Weisslingen;ZH;47.43039974;8.773433063
1278;La Rippe;VD;46.390237;6.120058
8486;Rikon im Tösstal;ZH;47.449446;8.793556
8487;Rämismühle;ZH;47.45419;8.789099622
8488;Turbenthal;ZH;47.43232571;8.879834509
8492;Wila;ZH;47.40902709;8.860922316
8493;Saland;ZH;47.377155;8.84751607
8494;Bauma;ZH;47.37326182;8.883981005
8496;Steg im Tösstal;ZH;47.350769;8.93504
8497;Fischenthal;ZH;47.331465;8.94141
8498;Gibswil-Ried;ZH;47.30585;8.92192
1279;Chavannes-de-Bogis;VD;46.34006328;6.154304805
8495;Schmidrüti;ZH;47.414932;8.903596
8499;Sternenberg;ZH;47.387724;8.914556
8500;Frauenfeld;TG;47.55803542;8.896555733
8501;Frauenfeld;TG;47.55549;8.89723
8502;Frauenfeld;TG;47.55803542;8.896555733
8503;Frauenfeld;TG;47.55803542;8.896555733
8505;Pfyn;TG;47.60221844;8.952897418
8506;Lanzenneunforn;TG;47.622605;8.93895
8507;Hörhausen;TG;47.633496;8.964153304
1274;Grens;VD;46.3965556;6.191530387
8508;Homburg;TG;47.63477;9.000702
8512;Thundorf;TG;47.54879593;8.976060179
8514;Amlikon-Bissegg;TG;47.56191724;9.035551914
8522;Häuslenen;TG;47.526394;8.904262
8523;Hagenbuch;ZH;47.516218;8.874479
1275;Chéserex;VD;46.408585;6.147611
8524;Uesslingen-Buch;TG;47.583663;8.803604026
8525;Niederneunforn;TG;47.5963;8.77927
8526;Oberneunforn;TG;47.606625;8.766975
8532;Warth-Weiningen;TG;47.583687;8.880638
8535;Herdern;TG;47.604398;8.916377
8536;Hüttwilen;TG;47.612605;8.859964
1276;Gingins;VD;46.42625552;6.137962476
8537;Nussbaumen TG;TG;47.60943;8.817745
8542;Wiesendangen;ZH;47.52726079;8.79823573
8544;Rickenbach-Attikon;ZH;47.528111;8.824267
8545;Rickenbach ZH;ZH;47.549116;8.765948
8546;Islikon;TG;47.55019;8.802952627
8547;Gachnang;TG;47.542198;8.852876
8548;Ellikon an der Thur;ZH;47.56424;8.824143
1270;Trélex;VD;46.41890441;6.19653716
8552;Felben-Wellhausen;TG;47.57598713;8.940508637
8553;Hüttlingen-Mettdf;TG;47.574824;8.984755
8554;Müllheim-Wigoltgn;TG;47.582523;9.043525
8555;Müllheim;TG;47.602186;9.000159
8556;Wigoltingen;TG;47.6005649;9.045782758
1271;Givrins;VD;46.429028;6.199702
8564;Lipperswil;TG;47.626475;9.08585
8558;Raperswilen;TG;47.63667;9.041764
8269;Fruthwilen;TG;47.65876;9.06779
8560;Märstetten;TG;47.5888026;9.077669195
8561;Ottoberg;TG;47.59092;9.085175
1272;Genolier;VD;46.4362731;6.220247814
8565;Hugelshofen;TG;47.598443;9.116234
8566;Dotnacht;TG;47.599925;9.141355
8570;Weinfelden;TG;47.56980422;9.112292172
1273;Le Muids;VD;46.486374;6.178289
8572;Berg TG;TG;47.579542;9.154471
8573;Siegershausen;TG;47.619009;9.13398531
8574;Lengwil;TG;47.611107;9.199758
8575;Bürglen TG;TG;47.550516;9.15916
8576;Mauren TG;TG;47.566582;9.15719
8577;Schönholzerswilen;TG;47.515402;9.134981
9217;Neukirch an der Thur;TG;47.51119;9.172455
8580;Amriswil;TG;47.54279162;9.287493509
8581;Schocherswil;TG;47.537115;9.266155
8588;Zihlschlacht-Sitterdorf;TG;47.517083;9.244024152
1268;Burtigny;VD;46.47153605;6.265162222
8589;Sitterdorf;TG;47.504773;9.248669
8583;Sulgen;TG;47.54233654;9.193458431
8584;Leimbach TG;TG;47.571796;9.188807
1261;Marchissy;VD;46.49809636;6.225953606
8585;Mattwil;TG;47.55884;9.220377698
8586;Erlen;TG;47.55098131;9.236367793
8587;Oberaach;TG;47.57141;9.267595232
8590;Romanshorn;TG;47.56353639;9.35680208
1269;Bassins;VD;46.489365;6.199102
8599;Salmsach;TG;47.551491;9.365948
8592;Uttwil;TG;47.57699319;9.338321154
8593;Kesswil;TG;47.58756606;9.313288945
8594;Güttingen;TG;47.59643906;9.286750697
8595;Altnau;TG;47.60732691;9.26155152
8596;Scherzingen;TG;47.624998;9.23384
8597;Landschlacht;TG;47.624653;9.248291
8598;Bottighofen;TG;47.63339786;9.210349797
8600;Dübendorf;ZH;47.39052877;8.617305863
8602;Wangen-Brüttisellen;ZH;47.410697;8.634568
8603;Schwerzenbach;ZH;47.38180702;8.656004859
8604;Volketswil;ZH;47.39258461;8.689601721
8605;Gutenswil;ZH;47.384597;8.716292
8606;Nänikon;ZH;47.352747;8.675075
8607;Seegräben;ZH;47.338181;8.767201
8608;Bubikon;ZH;47.26647711;8.808255658
8610;Uster;ZH;47.35315638;8.721694684
8612;Uster 2;ZH;47.34967;8.71942
8613;Uster 3;ZH;47.34967;8.71942
8614;Bertschikon;ZH;47.3208;8.75746
8615;Wermatswil;ZH;47.362165;8.746713
8616;Riedikon;ZH;47.332938;8.711806
8617;Mönchaltorf;ZH;47.31278344;8.723367355
8618;Oetwil am See;ZH;47.27395464;8.723660703
1262;Eysins;VD;46.381487;6.203942
8620;Wetzikon ZH;ZH;47.320808;8.80395
8621;Wetzikon ZH 4;ZH;47.322418;8.79792
8622;Wetzikon ZH;ZH;47.322418;8.79792
8623;Wetzikon ZH;ZH;47.32996;8.81827
8624;Grüt (Gossau ZH);ZH;47.310776;8.780595
8625;Gossau ZH;ZH;47.29906;8.754582
8626;Ottikon;ZH;47.293428;8.777434
8627;Grüningen;ZH;47.27940513;8.7619384
1263;Crassier;VD;46.372818;6.167521
8630;Rüti ZH;ZH;47.258033;8.852739
8632;Tann;ZH;47.267617;8.849812623
8633;Wolfhausen;ZH;47.257174;8.801215
8634;Hombrechtikon;ZH;47.25267104;8.768834468
8635;Dürnten;ZH;47.27572209;8.853950898
8636;Wald ZH;ZH;47.2746083;8.9142662
8639;Faltigberg;ZH;47.2764467;8.9422486
8637;Laupen ZH;ZH;47.269387;8.939035
8638;Goldingen;SG;47.276634;8.970915
8640;Rapperswil SG;SG;47.222914;8.815655083
1264;Saint-Cergue;VD;46.449549;6.128801
8650;Jona Dist Ba;SG;47.230698;8.864419
8645;Jona;SG;47.23314808;8.859440753
8646;Wagen;SG;47.23114;8.885865
8700;Küsnacht ZH;ZH;47.318781;8.614871
8702;Zollikon;ZH;47.34324289;8.594799929
8703;Erlenbach ZH;ZH;47.303978;8.597427
8704;Herrliberg;ZH;47.29715828;8.630275217
8706;Meilen;ZH;47.28044602;8.652563415
8707;Uetikon am See;ZH;47.27027527;8.681811016
8708;Männedorf;ZH;47.25963458;8.699921259
8712;Stäfa;ZH;47.24648441;8.733847556
8713;Uerikon;ZH;47.230515;8.748968137
8714;Feldbach;ZH;47.254467;8.780671088
8715;Bollingen;SG;47.219347;8.895041
1265;La Cure;VD;46.466839;6.088994792
8716;Schmerikon;SG;47.22591357;8.947335673
8717;Benken SG;SG;47.1984761;8.90044769
8718;Schänis;SG;47.17267137;9.066967215
8722;Kaltbrunn;SG;47.21002232;9.049284302
8723;Rufi;SG;47.185734;9.049929491
8725;Ernetschwil;SG;47.242442;9.01335
8726;Ricken SG;SG;47.278838;9.069531
8727;Walde SG;SG;47.27047;9.01257
8730;Uznach;SG;47.22654058;8.981517614
8732;Neuhaus SG;SG;47.2492;8.94469
1266;Duillier;VD;46.409134;6.228512
8733;Eschenbach SG;SG;47.2401739;8.9217296
8734;Ermenswil;SG;47.24507;8.88478
8735;St.Gallenkappel;SG;47.26851619;9.000343528
8737;Gommiswald;SG;47.24168099;9.043499693
8738;Uetliburg SG;SG;47.241534;9.025796
8739;Rieden;SG;47.223004;9.073446
8740;Uznach Vögele AG;SG;47.2243;8.98408
8750;Glarus;GL;47.02098996;8.979170176
8751;Urnerboden;UR;46.877611;8.899539732
8752;Näfels;GL;47.08226582;9.006532737
8753;Mollis;GL;47.09520489;9.092447807
8754;Netstal;GL;47.06382913;9.041899559
8755;Ennenda;GL;47.04453095;9.098877562
8756;Mitlödi;GL;47.0128;9.079602
8762;Schwanden GL;GL;47.002086;9.105708
1267;Vich-Coinsins;VD;46.419989;6.236938
8765;Engi;GL;46.995174;9.165894
8766;Matt;GL;46.969046;9.192651
8767;Elm;GL;46.906329;9.161195
8772;Nidfurn;GL;46.989844;9.043728
8773;Haslen;GL;46.958228;9.068671
8775;Luchsingen;GL;46.948226;9.030202121
8777;Diesbach GL;GL;46.930145;9.049781
8782;Rüti GL;GL;46.930794;9.020807
8783;Linthal;GL;46.86345185;8.979279035
8784;Braunwald;GL;46.94613136;8.982845875
8800;Thalwil;ZH;47.28750766;8.559196673
8802;Kilchberg ZH;ZH;47.314448;8.5406
8803;Rüschlikon;ZH;47.30432083;8.547011394
8804;Au ZH;ZH;47.245913;8.649359
8805;Richterswil;ZH;47.20076494;8.686793775
8806;Bäch SZ;SZ;47.201328;8.72789
8807;Freienbach;SZ;47.19591603;8.771117457
8808;Pfäffikon SZ;SZ;47.201382;8.77814
8810;Horgen;ZH;47.24868203;8.584926239
1281;Russin;GE;46.193173;6.013753
8812;Horgen;ZH;47.24868203;8.584926239
8813;Horgen;ZH;47.24868203;8.584926239
8815;Horgenberg;ZH;47.247635;8.58801
8816;Hirzel;ZH;47.21965745;8.600665476
8820;Wädenswil;ZH;47.22492861;8.65218528
8824;Schönenberg ZH;ZH;47.266247;8.320545
8825;Hütten;ZH;47.125447;8.690629
8832;Wollerau;SZ;47.18795884;8.70209617
8833;Samstagern;ZH;47.203436;8.685559381
1283;Dardagny;GE;46.198632;5.988675
8834;Schindellegi;SZ;47.166061;8.691120529
8835;Feusisberg;SZ;47.17474119;8.731501583
8836;Bennau;SZ;47.148445;8.729785
8840;Einsiedeln;SZ;47.1173741;8.779352127
8849;Alpthal;SZ;47.075642;8.714592
8846;Willerzell;SZ;47.132145;8.792085
8847;Egg SZ;SZ;47.161812;8.78307
8841;Gross;SZ;47.118998;8.775226
8844;Euthal;SZ;47.100054;8.816912563
8845;Studen SZ;SZ;47.07243;8.84
8842;Unteriberg;SZ;47.04803785;8.831663809
8843;Oberiberg;SZ;47.03024767;8.782188624
8852;Altendorf;SZ;47.17094134;8.828319643
8853;Lachen;SZ;47.193106;8.866754
8854;Siebnen;SZ;47.1813341;8.8741829
1284;Chancy;GE;46.148131;5.979862
8855;Wangen SZ;SZ;47.1922754;8.8942252
8856;Tuggen;SZ;47.1998115;8.940035835
8857;Vorderthal;SZ;47.1262575;8.889473903
8858;Innerthal;SZ;47.084618;8.917669
8862;Schübelbach;SZ;47.15487896;8.933457407
8863;Buttikon SZ;SZ;47.175179;8.95279
8864;Reichenburg;SZ;47.161098;8.974157
8865;Bilten;GL;47.14784098;9.007992662
8866;Ziegelbrücke;GL;47.114104;9.045660667
1285;Avusy;GE;46.148537;5.999065
8867;Niederurnen;GL;47.12686524;9.023413142
8868;Oberurnen;GL;47.11125272;9.017756763
8872;Weesen;SG;47.14267538;9.093506108
8873;Amden;SG;47.16019835;9.166563471
8874;Mühlehorn;GL;47.098133;9.174733
8758;Obstalden;GL;47.092648;9.153706
8757;Filzbach;GL;47.099116;9.124813
8877;Murg;SG;47.117244;9.217564961
8878;Quinten;SG;47.083755;9.216752269
1286;Soral;GE;46.147695;6.04707
8880;Walenstadt;SG;47.125919;9.330166474
8881;Walenstadtberg;SG;47.136481;9.285459
8882;Unterterzen;SG;47.119401;9.249781583
8883;Quarten;SG;47.094539;9.222624
8884;Oberterzen;SG;47.077583;9.245858419
8885;Mols;SG;47.089732;9.287007915
8887;Mels;SG;47.00076162;9.337808443
1287;Laconnex;GE;46.154745;6.033322
8886;Mädris-Vermol;SG;47.039001;9.382635
8889;Plons;SG;47.057014;9.400176
8888;Heiligkreuz (Mels);SG;46.765501;10.21268935
8890;Flums;SG;47.05974656;9.297346367
8892;Berschis;SG;47.097961;9.35277538
8893;Flums Hochwiese;SG;47.083025;9.37168
8894;Flumserberg Saxli;SG;47.079225;9.349035
8895;Flumserberg Portel;SG;47.062099;9.3094
8896;Flumserberg Bergh;SG;47.089458;9.32136
1288;Aire-la-Ville;GE;46.186249;6.041955
8897;Flumserberg Theim;SG;47.04884;9.28539
8898;Flumserberg Tboden;SG;47.062592;9.21536
8902;Urdorf;ZH;47.37984789;8.422492678
8903;Birmensdorf ZH;ZH;47.353676;8.435449
8904;Aesch ZH;ZH;47.335048;8.404056
8905;Arni-Islisberg;AG;47.316901;8.396686
8906;Bonstetten;ZH;47.31668057;8.466303044
8907;Wettswil;ZH;47.336978;8.470272
8908;Hedingen;ZH;47.30148761;8.451038258
8910;Affoltern am Albis;ZH;47.28167771;8.450278234
8909;Zwillikon;ZH;47.288254;8.429134
8911;Rifferswil;ZH;47.241563;8.49714
8912;Obfelden;ZH;47.26152009;8.422103197
8913;Ottenbach;ZH;47.28147983;8.409449645
8914;Aeugst am Albis;ZH;47.27539686;8.489750552
8915;Hausen am Albis;ZH;47.24435647;8.536740922
8916;Jonen;AG;47.29969244;8.402256893
1290;Versoix;GE;46.29146036;6.145407651
8917;Oberlunkhofen;AG;47.31249441;8.397713486
8918;Unterlunkhofen;AG;47.324699;8.38332
8919;Rottenschwil;AG;47.314321;8.36406
8925;Ebertswil;ZH;47.226882;8.549531
8926;Kappel am Albis;ZH;47.228669;8.512893
8932;Mettmenstetten;ZH;47.24778746;8.464062937
8933;Maschwanden;ZH;47.234626;8.427361
8934;Knonau;ZH;47.22444757;8.462689911
8942;Oberrieden;ZH;47.27255233;8.571665111
1291;Commugny;VD;46.320059;6.163428
8951;Fahrweid;ZH;47.412315;8.414245
8952;Schlieren;ZH;47.39499243;8.44891326
8953;Dietikon;ZH;47.40198961;8.398337587
8954;Geroldswil;ZH;47.42067462;8.412010505
1292;Pregny-Chambésy;GE;46.238909;6.138445
8955;Oetwil an der Limmat;ZH;47.431372;8.397959
8956;Killwangen;AG;47.42797968;8.344297976
8957;Spreitenbach;AG;47.41790204;8.367425871
8962;Bergdietikon;AG;47.38803173;8.378360711
8964;Rudolfstetten-Friedlisberg;AG;47.356323;8.379258599
8965;Berikon;AG;47.35386903;8.383858678
8966;Oberwil-Lieli;AG;47.33716166;8.395220603
8967;Widen;AG;47.37006063;8.358139601
1293;Bellevue;GE;46.25727835;6.13649462
9000;St.Gallen;SG;47.42214049;9.375948581
1294;Genthod;GE;46.26644644;6.153847016
9001;St. Gallen;SG;47.426479;9.37605
9004;St. Gallen;SG;47.42214049;9.375948581
1295;Mies-Tannay;VD;46.302415;6.16047
9006;St. Gallen;SG;47.42214049;9.375948581
9007;St. Gallen;SG;47.426479;9.37605
9008;St. Gallen;SG;47.42214049;9.375948581
9009;St. Gallen;SG;47.42214049;9.375948581
9010;St. Gallen;SG;47.437908;9.36658
9011;St. Gallen;SG;47.42214049;9.375948581
9012;St. Gallen;SG;47.42214049;9.375948581
9013;St. Gallen;SG;47.42214049;9.375948581
9014;St. Gallen;SG;47.42214049;9.375948581
9015;St. Gallen;SG;47.42214049;9.375948581
1296;Coppet;VD;46.32136784;6.188890967
9016;St. Gallen;SG;47.42214049;9.375948581
9030;Abtwil SG;SG;47.43699;9.331124
9032;Engelburg;SG;47.443505;9.341765
9033;Untereggen;SG;47.451231;9.454153
9034;Eggersriet;SG;47.44674565;9.482750771
9035;Grub AR;AR;47.437936;9.439355
9036;Grub SG;SG;47.454041;9.50312
9037;Speicherschwendi;AR;47.425285;9.436885
9038;Rehetobel;AR;47.42783643;9.482075622
1297;Founex;VD;46.33646506;6.184882814
9042;Speicher;AR;47.41289958;9.444112049
9043;Trogen;AR;47.40059935;9.47761995
9044;Wald AR;AR;47.414104;9.499812
9050;Appenzell;AI;47.33662496;9.413054347
9052;Niederteufen;AR;47.393683;9.364295
9053;Teufen AR;AR;47.393462;9.396778
9054;Haslen AI;AI;47.362469;9.382023
9055;Bühler;AR;47.38072369;9.427031971
9056;Gais;AR;47.36924986;9.471646816
1298;Céligny;GE;46.351672;6.190504
9057;Weissbad;AI;47.28047;9.393619
9058;Brülisau;AI;47.296615;9.454525
9062;Lustmühle;AR;47.398868;9.358175
9063;Stein AR;AR;47.375133;9.335735
9064;Hundwil;AR;47.320898;9.318027
9100;Herisau;AR;47.38287873;9.27443681
9102;Herisau;AR;47.38287873;9.27443681
1299;Crans-près-Céligny;VD;46.36433443;6.205160028
9103;Schwellbrunn;AR;47.35179319;9.235045061
9104;Waldstatt;AR;47.35708037;9.284885681
9105;Schönengrund;AR;47.32070149;9.232076487
9107;Urnäsch;AR;47.29654218;9.267795672
9108;Gonten;AI;47.31918726;9.348927669
1302;Vufflens-la-Ville;VD;46.574752;6.536832
9112;Schachen b.Herisau;AR;47.383418;9.242228
9113;Degersheim;SG;47.38512838;9.186763926
9114;Hoffeld;SG;47.362423;9.175026
9115;Dicken;SG;47.336855;9.192265
9116;Wolfertswil;SG;47.394968;9.182031
9122;Mogelsberg;SG;47.35632514;9.158941858
9123;Nassen;SG;47.373416;9.136167
9125;Brunnadern;SG;47.31951094;9.140134857
9126;Necker;SG;47.350821;9.13479616
9127;St.Peterzell;SG;47.32907;9.199634
9633;Bächli (Hemberg);SG;47.29708;9.182745
9200;Gossau SG;SG;47.42202;9.25489
9203;Niederwil SG;SG;47.42197;9.201364
9204;Andwil SG;SG;47.464568;9.26909
9205;Waldkirch;SG;47.46416952;9.303333309
9212;Arnegg;SG;47.44299;9.25549
9213;Hauptwil-Gottshaus;TG;47.438441;9.252024458
9214;Kradolf-Schönenberg;TG;47.518344;9.181181
9216;Heldswil;TG;47.512861;9.223553
9215;Schönenberg TG;TG;47.521648;9.19917
9220;Bischofszell;TG;47.49561551;9.216146548
9223;Schweizersholz;TG;47.502016;9.199496
9225;Wilen (Gottshaus);TG;47.486879;9.30202
9230;Flawil;SG;47.40531674;9.198021492
9231;Egg (Flawil);SG;47.390268;9.226915
9604;Oberrindal;SG;47.39658;9.08599
9240;Uzwil;SG;47.44678988;9.117494133
1307;Lussery-Villars;VD;46.346778;7.163295
9242;Oberuzwil;SG;47.42154364;9.141082906
9248;Bichwil;SG;47.420629;9.136419
9243;Jonschwil;SG;47.428418;9.086715
9244;Niederuzwil;SG;47.411008;9.086232672
9245;Oberbüren;SG;47.44209225;9.181502856
9246;Niederbüren;SG;47.46179201;9.215383783
9247;Henau;SG;47.448271;9.115985937
9249;Algetshausen;SG;47.44796;9.108135
9302;Kronbühl;SG;47.448013;9.378042421
1305;Penthalaz;VD;46.61277537;6.529053247
9303;Wittenbach;SG;47.467327;9.381567
9304;Bernhardzell;SG;47.472936;9.335445
9305;Berg SG;SG;47.484659;9.398366
9306;Freidorf TG;TG;47.492877;9.375515
9315;Winden;TG;47.50636;9.3565
9308;Lömmenschwil;SG;47.497145;9.355074
9312;Häggenschwil;SG;47.494216;9.346194
9313;Muolen;SG;47.51679752;9.316813178
9314;Steinebrunn;TG;47.534105;9.3432
1315;La Sarraz;VD;46.65450095;6.504754495
9320;Arbon;TG;47.51523119;9.41954934
9322;Egnach;TG;47.52892317;9.365700954
9323;Steinach;SG;47.4943071;9.435649403
9325;Roggwil TG;TG;47.501273;9.370704
9326;Horn;TG;47.4927902;9.461374272
9327;Tübach;SG;47.48285322;9.454394538
1317;Orny;VD;46.66729;6.53565
9400;Rorschach;SG;47.47564585;9.495378085
9404;Rorschacherberg;SG;47.46657074;9.504811189
9402;Mörschwil;SG;47.46757998;9.426597017
9403;Goldach;SG;47.47363956;9.468344827
9405;Wienacht-Tobel;AR;47.464755;9.54251
9410;Heiden;AR;47.44120463;9.534001449
9411;Reute AR;AR;47.410187;9.52913
9413;Oberegg;AI;47.41694125;9.558062195
9414;Schachen b. Reute;AR;47.425965;9.560574
1316;Chevilly;VD;46.641831;6.471855
9422;Staad SG;SG;47.477544;9.542933
9423;Altenrhein;SG;47.479148;9.54923179
9424;Rheineck;SG;47.47004421;9.583953478
9425;Thal;SG;47.47835326;9.55731623
9426;Lutzenberg;AR;47.459378;9.561572
9427;Wolfhalden;AR;47.44968068;9.561135288
9428;Walzenhausen;AR;47.44352868;9.597985391
9430;St.Margrethen;SG;47.447743;9.626463
1337;Vallorbe;VD;46.70785731;6.371397542
9434;Au SG;SG;47.426208;9.638677
9435;Heerbrugg;SG;47.389906;9.63728973
9436;Balgach;SG;47.40088029;9.60854556
9437;Marbach SG;SG;47.385836;9.579298
9450;Lüchingen;SG;47.356451;9.538097
9442;Berneck;SG;47.42465639;9.613112815
9443;Widnau;SG;47.40470854;9.639751309
9444;Diepoldsau;SG;47.38400051;9.647511707
9445;Rebstein;SG;47.39358253;9.590280016
9451;Kriessern;SG;47.36422;9.60588
9452;Hinterforst;SG;47.358674;9.53255
9453;Eichberg;SG;47.348003;9.525434
9462;Montlingen;SG;47.334015;9.583404
9463;Oberriet SG;SG;47.332828;9.565198
9464;Rüthi SG;SG;47.285287;9.534795837
9465;Salez;SG;47.23229;9.499955315
9466;Sennwald;SG;47.24390497;9.477273866
9467;Frümsen;SG;47.245137;9.473477
9468;Sax;SG;47.234197;9.445347521
9469;Haag (Rheintal);SG;47.20979;9.489725
9470;Buchs SG;SG;47.157489;9.459051
9472;Grabs;SG;47.16830454;9.394873605
1338;Ballaigues;VD;46.73490634;6.410294061
9473;Gams;SG;47.21154575;9.430651489
9475;Sevelen;SG;47.12967837;9.458870012
9476;Weite;SG;47.092435;9.497664
9477;Trübbach;SG;47.038302;9.476325527
9478;Azmoos;SG;47.080297;9.476689
9479;Oberschan;SG;47.099101;9.474586
9485;Nendeln;FL;47.19857;9.56314
9486;Schaanwald;FL;47.21154;9.56242
9487;Gamprin-Bendern;FL;47.20642;9.526638
9488;Schellenberg;FL;47.235245;9.555973
9490;Vaduz;FL;47.137866;9.521866
9491;Ruggell;FL;47.243351;9.54011
9492;Eschen;FL;47.203232;9.532155
9493;Mauren FL;FL;47.211726;9.563943
9494;Schaan;FL;47.148091;9.566619
9495;Triesen;FL;47.083263;9.566739
1341;Orient;VD;46.60108;6.237835
9496;Balzers;FL;47.095017;9.557163
9497;Triesenberg;FL;47.116138;9.587993
9500;Wil SG;SG;47.459015;9.043992
9502;Braunau;TG;47.50431862;9.069074084
9503;Stehrenberg;TG;47.523265;9.088735
9504;Friltschen;TG;47.539601;9.084183
1346;Les Bioux;VD;46.615355;6.259954
9506;Lommis;TG;47.518995;8.99308
9507;Stettfurt;TG;47.525163;8.956611
9508;Weingarten-Kalth;TG;47.521891;8.985087
9512;Rossrüti;SG;47.474182;9.060883
9514;Wuppenau;TG;47.494121;9.117685
9515;Hosenruck;TG;47.49059;9.12221
1344;L'Abbaye;VD;46.63614;6.311316
9517;Mettlen;TG;47.535427;9.109564072
9565;Rothenhausen;TG;47.53936;9.095428
9523;Züberwangen;SG;47.46586;9.085035
9524;Zuzwil SG;SG;47.470434;9.097565
9525;Lenggenwil;SG;47.474669;9.14953
9526;Zuckenriet;SG;47.483062;9.141638677
9527;Niederhelfenschwil;SG;47.47838254;9.165942122
9532;Rickenbach TG;TG;47.447062;9.043663
9533;Kirchberg SG;SG;47.403938;8.981478
9534;Gähwil;SG;47.397445;9.003265
1342;Le Pont;VD;46.667344;6.309739749
9535;Wilen TG;TG;47.44583;9.021818
9536;Schwarzenbach SG;SG;47.439049;9.07369
9542;Münchwilen TG;TG;47.479282;8.988621
9543;St. Margarethen TG;TG;47.490181;9.00223
9545;Wängi;TG;47.49329054;8.95783697
9546;Tuttwil;TG;47.483576;8.937002
9547;Wittenwil;TG;47.503089;8.921582
9548;Matzingen;TG;47.52665262;8.92963363
9552;Bronschhofen;SG;47.48133582;9.049661343
1343;Les Charbonnières;VD;46.666869;6.318055902
9553;Bettwiesen;TG;47.49767268;9.01893898
9554;Tägerschen;TG;47.508942;9.030192
9555;Tobel-Tägerschen;TG;47.5167;9.03333
9556;Affeltrangen;TG;47.53245804;9.045850226
9562;Märwil;TG;47.503653;9.086364233
1345;Le Lieu;VD;46.66169;6.279332
9573;Littenheid;TG;47.44104;9.0087
9601;Lütisburg Station;SG;47.384629;9.072636
9602;Bazenheid;SG;47.397779;9.065083615
9606;Bütschwil;SG;47.35274985;9.069243637
9607;Mosnang;SG;47.35007267;9.009238942
9608;Ganterschwil;SG;47.378917;9.091404
1347;Le Sentier;VD;46.620172;6.233431548
9612;Dreien;SG;47.372931;9.017681
9613;Mühlrüti;SG;47.362902;8.982536282
9614;Libingen;SG;47.328755;9.022905
9615;Dietfurt;SG;47.34593;9.080221
9620;Lichtensteig;SG;47.32479308;9.096766738
9621;Oberhelfenschwil;SG;47.349695;9.111466
9622;Krinau;SG;47.316735;9.050454
9630;Wattwil;SG;47.2906981;9.087226238
9631;Ulisbach;SG;47.285443;9.105354
9642;Ebnat-Kappel;SG;47.24478803;9.130732744
9643;Krummenau;SG;47.223327;9.164729818
9650;Nesslau;SG;47.206381;9.200459689
9651;Ennetbühl;SG;47.240203;9.211041
9655;Stein SG;SG;47.20008;9.219689
9652;Neu St. Johann;SG;47.229698;9.194419
9656;Alt St.Johann;SG;47.184002;9.280458
9657;Unterwasser;SG;47.200042;9.295517767
9658;Wildhaus;SG;47.21688015;9.353220457
3185;Schmitten FR;FR;46.846782;7.242022
3113;Rubigen;BE;46.89969596;7.544924634
6304;Zug;ZG;47.14999395;8.523302136
1348;Le Brassus;VD;46.582205;6.218661128
6911;Campione;IT;45.969311;8.974059
8238;Büsingen;DE;47.699728;8.693445
6302;Zug;ZG;47.14999395;8.523302136
6303;Zug;ZG;47.14999395;8.523302136
1289;Genève Serv. Spéc.;GE;46.196049;6.190992
7003;Chur Postauto;GR;46.849579;9.53225
3024;Bern;BE;46.948021;7.44821
1306;Daillens;VD;46.628558;6.549613
1303;Penthaz;VD;46.59875742;6.541283954
1308;La Chaux (Cossonay);VD;46.620473;6.450495
1313;Ferreyres;VD;46.654285;6.478313
1321;Arnex-sur-Orbe;VD;46.684973;6.515581
1318;Pompaples;VD;46.672777;6.516883
1017;Lausanne Veillon;VD;46.519588;6.63234
1099;Montpreveyres Foto;VD;46.576008;6.745942
1312;Eclépens;VD;46.65147835;6.542880624
3030;Bern;BE;46.948021;7.44821
1031;Mex VD;VD;46.572937;6.543879
1734;Tentlingen;FR;46.763994;7.198929
1029;Villars-Sainte-Croix;VD;46.565837;6.560968
1400;Cheseaux-Noréaz;VD;46.77427297;6.637107339
9101;Herisau;AR;47.3851;9.27817
1329;Bretonnières;VD;46.715272;6.470298
1322;Croy;VD;46.685152;6.48278
3044;Innerberg;BE;46.979016;7.333100549
8288;Kreuzlingen Sonder;TG;47.634792;9.145986
1323;Romainmôtier-Envy;VD;46.684682;6.461046
1324;Premier;VD;46.708039;6.441932
1325;Vaulion;VD;46.687029;6.384448
1326;Juriens;VD;46.68108;6.431743
8317;Tagelswangen;ZH;47.430522;8.672252
6908;Massagno Caselle;TI;46.011929;8.94698
6009;Luzern;LU;47.049545;8.304375
1350;Orbe;VD;46.72701082;6.543042377
6910;Lugano;TI;46.004539;8.95556
1051;Mont-Lausanne Poly;VD;46.519428;6.63345
5232;Villigen PSI;AG;47.53762;8.2252
6349;Baar;ZG;47.194725;8.526297
1352;Agiez;VD;46.71808;6.508968
1353;Bofflens;VD;46.701731;6.49527
1595;Clavaleyres;BE;46.894717;7.088361
2715;Monible;BE;47.270148;7.185734
1354;Montcherand;VD;46.733962;6.512095
1470;Bollion;FR;46.84964548;6.856675342
1534;Chapelle (Broye);FR;46.773586;6.856818
1473;Châtillon FR;FR;46.832977;6.822625
1475;Forel FR;FR;46.781084;6.720421
1483;Frasses;FR;46.82679;6.863445
1566;Les Friques;FR;46.891611;6.903848
1355;L'Abergement;VD;46.750606;6.498658
1484;Granges-de-Vesin;FR;46.799433;6.850316859
1541;Morens FR;FR;46.833606;6.86092
1528;Praratoud;FR;46.739704;6.849903
1565;Vallon;FR;46.874029;6.968963
1356;Les Clées;VD;46.732951;6.471261
1680;Berlens;FR;46.699726;6.915691
1670;Bionnens;FR;46.62397084;6.851551517
1675;Blessens;FR;46.616428;6.849407771
1608;Chapelle (Glâne);FR;46.562115;6.862491
1694;Chavannes-Orsonnen;FR;46.700006;7.016817939
1697;Les Ecasseys;FR;46.620669;6.911166
1681;Hennens;FR;46.685092;6.8875
1357;Lignerolle;VD;46.746825;6.447387
1688;Lieffrens;FR;46.636339;6.901256
1687;La Magne;FR;46.634992;6.931891
1674;Montet (Glâne);FR;46.639257;6.836437
1686;La Neirigue;FR;46.670081;6.973767
1653;Châtel-sur-Montsalvens;FR;46.617184;7.126975
1358;Valeyres-sous-Rances;VD;46.747154;6.529419
1625;Maules;FR;46.638724;6.990492
1652;Villarbeney;FR;46.624826;7.114274
1666;Villars-sous-Mont;FR;46.531556;7.106078
1730;Ecuvillens;FR;46.74982;7.083637445
1724;Essert FR;FR;46.738657;7.141011
1726;Farvagny-le-Petit;FR;46.72770391;7.066274
1439;Rances;VD;46.765853;6.524146
1727;Magnedens;FR;46.74142;7.08987
1723;Pierrafortscha;FR;46.77600735;7.149204575
1695;Rueyres-St-Laurent;FR;46.716864;7.01663796
1721;Cormérod;FR;46.854733;7.080615
1373;Chavornay;VD;46.70654715;6.56893779
1716;Oberschrot;FR;46.663286;7.281774214
1719;Zumholz;FR;46.757378;7.275161
1609;Besencens;FR;46.582988;6.8814
1624;Grattavache;FR;46.597601;6.920266
1580;Oleyres;VD;46.88466199;7.038345434
1376;Eclagnens;VD;46.646263;6.59021
1421;Grandevent;VD;46.843028;6.592088
1428;Mutrux;VD;46.880948;6.718037
1423;Romairon;VD;46.842571;6.635012
1682;Lovatens;VD;46.692084;6.864827
1513;Rossenges;VD;46.63734;6.753961
1683;Sarzens;VD;46.668609;6.858015
1607;Les Tavernes;VD;46.549122;6.835247
1610;Vuibroye;VD;46.56187665;6.805319142
1372;Bavois;VD;46.681193;6.566261
1554;Rossens VD;VD;46.742578;6.929186
1525;Seigneux;VD;46.649679;8.733607
1436;Chamblon;VD;46.769062;6.605071
1415;Démoret;VD;46.747617;6.756717
1443;Essert-sous-Champvent;VD;46.783517;6.563703
1374;Corcelles-sur-Chavornay;VD;46.70035;6.604056
1432;Gressy;VD;46.737334;6.625156
1413;Oppens;VD;46.715111;6.695104
1412;Ursins;VD;46.734547;6.665983
1404;Villars-Epeney;VD;46.77044;6.691131
2027;Montalchez;NE;46.886716;6.747247
1375;Penthéréaz;VD;46.678332;6.605868
2933;Damphreux;JU;47.26598;7.091707
3429;Hellsau;BE;47.142335;7.646911
3632;Niederstocken;BE;46.69826;7.569427
8774;Leuggelbach;GL;46.988037;9.032806
1401;Yverdon-les-Bains;VD;46.78311;6.650975346
5058;Wiliberg;AG;47.26538;8.01557
3940;Steg;VS;46.324185;7.76288
9498;Planken;FL;47.176204;9.579345
1626;Treyfayes;FR;46.650697;6.941994218
8801;Thalwil;ZH;47.294736;8.564708
1416;Pailly;VD;46.700051;6.675571
1418;Vuarrens;VD;46.683532;6.645054
1420;Fiez;VD;46.830572;6.609864
1453;Mauborget;VD;46.842478;6.558819
1429;Giez;VD;46.810857;6.609285
6341;Baar;ZG;47.194725;8.526297
6342;Baar;ZG;47.19543532;8.537081334
1430;Orges;VD;46.807656;6.583351
9029;St. Gallen;SG;47.426479;9.37605
1585;Bellerive VD;VD;46.908054;6.833008
1431;Vugelles-La Mothe;VD;46.831939;6.594341
1709;Fribourg;FR;46.80418039;7.159743642
8879;Pizolpark (Mels);SG;47.041692;9.433649
1405;Pomy;VD;46.755703;6.66845
1406;Cronay;VD;46.754431;6.699215
8118;Pfaffhausen;ZH;47.368644;8.627021
5601;Lenzburg Sonderdst;AG;47.397228;8.187057
1091;Chenaux;VD;46.50336728;6.721974017
9028;St. Gallen CV AG;SG;47.426479;9.37605
9027;St. Gallen;SG;47.426479;9.37605
1408;Prahins;VD;46.734973;6.732908
1623;La Rougève;FR;46.56985582;6.955708042
1811;Vevey;VD;46.458912;6.84716
3609;Thun;BE;46.756967;7.630185
1409;Chanéaz;VD;46.727376;6.744256
1775;Mannens;FR;46.783288;6.984388289
1414;Rueyres;VD;46.696737;6.74929
1427;Bonvillars;VD;46.848709;6.669699
1424;Champagne;VD;46.835654;6.651905
8070;Zürich;ZH;47.369091;8.53801
8071;Zürich CS PZ;ZH;47.3461;8.51975
1631;Bulle;FR;46.618603;7.057381
3040;Bern;BE;46.948021;7.44821
4040;Basel;BL;47.41528;8.346665
6007;Luzern;LU;47.049545;8.304375
8759;Netstal;GL;47.065641;9.057393
9020;St. Gallen;SG;47.426479;9.37605
1422;Grandson;VD;46.81462574;6.644448978
8079;Zürich;ZH;47.38282396;8.530806726
1425;Onnens VD;VD;46.84819;6.673165
4573;Lohn-Ammannsegg;SO;47.17335805;7.527820834
9026;St. Gallen K AG;SG;47.426479;9.37605
1426;Concise;VD;46.86706845;6.717382094
6031;Ebikon;LU;47.081655;8.34099
6021;Emmenbrücke 1;LU;47.083439;8.274217
6391;Engelberg;OW;46.820989;8.404392
6281;Hochdorf;LU;47.166978;8.289325
6011;Kriens;LU;47.033805;8.279205
6061;Sarnen 1;OW;46.8957815;8.2455919
6371;Stans;NW;46.95725;8.365905
6431;Schwyz;SZ;47.021667;8.652429
9025;St. Gallen Quelle;SG;47.187502;8.497257
6907;Lugano 7 Caselle;TI;45.998679;8.948092
1240;Genève;GE;46.203819;6.13993
9471;Buchs SG 1;SG;47.168262;9.485518
1530;Payerne Caserne;VD;46.81914323;6.934742512
1433;Suchy;VD;46.718904;6.602005
9401;Rorschach;SG;47.47564585;9.495378085
9501;Wil SG 1;SG;47.455517;9.052056
1434;Ependes VD;VD;46.742699;6.596881
1435;Essert-Pittet;VD;46.726949;6.578744
1437;Suscévaz;VD;46.76079;6.585026
4509;Solothurn;SO;47.210542;7.536927
1438;Mathod;VD;46.75963836;6.564966949
9420;Rheineck Intermed;SG;47.480606;9.578523
4070;Basel;BS;47.559662;7.58053
1441;Valeyres-sous-Montagny;VD;46.798093;6.603897
8609;Schwerzenbach;ZH;47.38254;8.657335
1442;Montagny-près-Yverdon;VD;46.789801;6.606159
6602;Muralto;TI;46.172773;8.80095
6161;Entlebuch;LU;46.992802;8.064999
9201;Gossau SG;SG;47.417149;9.25921
8510;Frauenfeld;TG;47.55619;8.89581
3050;Bern;BE;46.948021;7.44821
1445;Vuiteboeuf;VD;46.803379;6.552492
1446;Baulmes;VD;46.78767187;6.499437821
1450;Sainte-Croix;VD;46.82421;6.50105
1700;Fribourg Caserne;FR;46.80418039;7.159743642
8086;Zürich R Digest;ZH;47.3461;8.51975
1630;Bulle 1;FR;46.60752674;7.04614631
1452;Les Rasses;VD;46.828968;6.538816
8085;Zürich Versich.;ZH;47.3461;8.51975
2075;Thielle-Wavre;NE;47.019356;7.020211
1462;Yvonand;VD;46.79035206;6.736051791
1463;Rovray;VD;46.785768;6.766508
1464;Chavannes-le-Chêne;VD;46.76694;6.768111
1468;Cheyres;FR;46.81149;6.785646
1474;Châbles;FR;46.821238;6.810073
1482;Cugy FR;FR;46.809002;6.861591
1485;Nuvilly;FR;46.780232;6.830705
1486;Vuissens;FR;46.731327;6.768336
1537;Champtauroz;VD;46.757145;6.783745
1538;Treytorrens (Payerne);VD;46.772986;6.801119
1489;Murist;FR;46.79397;6.802546
1068;Les Monts-de-Pully;VD;46.536285;6.689425
2010;Neuchâtel OFS;NE;46.988617;6.897219
8285;Kreuzlingen Ifolor;TG;47.634792;9.145986
1512;Chavannes-sur-Moudon;VD;46.65919;6.813108
4039;Basel;BS;47.559662;7.58053
1514;Bussy-sur-Moudon;VD;46.689729;6.809362
1522;Oulens-sur-Lucens;VD;46.70755941;6.814236779
1515;Villars-le-Comte;VD;46.696228;6.785907
2510;Biel/Bienne DistBa;BE;47.14381;7.24868
5510;Hunzenschwil DistB;AG;47.39275;8.128335
8210;Schaffhausen DistB;SH;47.697472;8.63223
9510;Wil SG Dist Ba;SG;47.455517;9.052056
1521;Curtilles;VD;46.697767;6.843984
1523;Granges-près-Marnand;VD;46.76433;6.886437
1527;Villeneuve FR;FR;47.658505;8.752827
1529;Cheiry;FR;46.753116;6.839812
1752;Villars-Glâne Dist;FR;46.79435761;7.125136662
1532;Fétigny;FR;46.792397;6.912043
1533;Ménières;FR;46.784934;6.884994
1536;Combremont-le-Petit;VD;46.746177;6.819589
1526;Forel-sur-Lucens;VD;46.722221;6.823914
1542;Rueyres-les-Prés;FR;46.856665;6.910914
1543;Grandcour;VD;46.873824;6.932124
1544;Gletterens;FR;46.900255;6.931024
1545;Chevroux;VD;46.888696;6.906779
1551;Vers-chez-Perrin;VD;46.797449;6.941987
1552;Trey;VD;46.774843;6.921809
5018;Erlinsbach;AG;47.407882;7.992814
1553;Châtonnaye;FR;46.752828;6.938321
1310;Daillens Dist Ba;VD;46.620602;6.54867
1555;Villarzel;VD;46.743982;6.906826
8098;Zürich;ZH;47.369091;8.53801
8066;Zürich;ZH;47.38282396;8.530806726
1535;Combremont-le-Grand;VD;46.764909;6.821153
4620;Härkingen PZ;SO;47.312012;7.813962
8183;Bülach Dist Ba;ZH;47.516678;8.526242
8325;Effretikon Dist Ba;ZH;47.437798;8.696654
8520;Frauenfeld PZ;TG;47.55619;8.89581
8343;Hinwil Dist Ba;ZH;47.289944;8.820842
8818;Horgen Dist Ba;ZH;47.242153;8.607008
1562;Corcelles-près-Payerne;VD;46.836773;6.966206
1563;Dompierre FR;FR;46.85493;6.989638
6871;Mendrisio CS;TI;45.873295;8.976949
1564;Domdidier;FR;46.86264205;7.016069311
8087;Zürich;ZH;47.369091;8.53801
1567;Delley;FR;46.914464;6.968416
1568;Portalban;FR;46.8994;6.95692819
1582;Donatyre;VD;46.872277;7.060731
1583;Villarepos;FR;46.882019;7.078231
4078;Basel Reader's D.;BS;47.559662;7.58053
1584;Villars-le-Grand;VD;46.904101;6.998655
1586;Vallamand;VD;46.932357;7.036886
1587;Montmagny;VD;46.909053;7.018484
1589;Chabrey;VD;46.929702;6.982166
1588;Cudrefin;VD;46.95214124;7.027057514
6305;Zug 5 Dist Ba;ZG;47.190525;8.475174
9024;St. Gallen;SG;47.426479;9.37605
4609;Olten;SO;47.352119;7.904029
8015;Zürich 15;ZH;47.369091;8.53801
1818;Montreux Redoute;VD;46.43169;6.91051
8540;Frauenfeld ST PP 1;TG;47.561954;8.872665
8530;Frauenfeld CALL;TG;47.55619;8.89581
4640;Härkingen ST PP 1;SO;47.312012;7.813962
4630;Härkingen CALL;SO;47.312012;7.813962
1330;Daillens CALL;VD;46.620602;6.54867
1320;Daillens ST PP 1;VD;43.865559;126.486488
8198;Rümlang Voice Pub.;ZH;47.452332;8.52807
1524;Marnand;VD;46.76067;6.901661
1090;La Croix (Lutry);VD;46.516119;6.702551
1440;Montagny-Chamard;VD;46.244308;5.218539
4065;Basel SBB Cargo AG;BS;47.548721;7.58769
1070;Puidoux;VD;46.508573;6.784104
1072;Forel (Lavaux);VD;46.53789213;6.762848763
1617;Tatroz;FR;46.535052;6.880472
1614;Granges (Veveyse);FR;46.524317;6.80516
1615;Bossonnens;FR;46.52893924;6.848143108
1616;Attalens;FR;46.51203879;6.857408139
8075;Zürich;ZH;47.369091;8.53801
1618;Châtel-Saint-Denis;FR;46.521521;6.945905
4080;Basel;BS;47.559662;7.58053
6039;Root Längenbold;LU;47.106342;8.378017
1619;Les Paccots;FR;46.522506;6.943916
1627;Vaulruz;FR;46.61472609;6.98626375
1628;Vuadens;FR;46.60840191;7.004708602
1633;Vuippens;FR;46.656244;7.049728
1642;Sorens;FR;46.672535;7.044561
1643;Gumefens;FR;46.67729;7.07685
1644;Avry-devant-Pont;FR;46.685279;7.086251
4089;Basel;BS;47.559662;7.58053
1645;Le Bry;FR;46.699477;7.0830203
1646;Echarlens;FR;46.648904;7.07688
8068;Zürich;ZH;47.369091;8.53801
1647;Corbières;FR;46.65375;7.116222
1648;Hauteville;FR;46.66819;7.130085
4033;Basel;BS;47.5596145;7.5806107
1340;Daillens;VD;46.620602;6.54867
1656;Im Fang;FR;46.605853;7.267483
8186;Bülach;ZH;47.517685;8.541009
4042;Basel PF OC;BL;47.548721;7.58769
1657;Abländschen;BE;46.565187;7.307402871
1654;Cerniat FR;FR;46.664901;7.20093
1651;Villarvolard;FR;46.64487;7.116732
4083;Basel;BS;47.559662;7.58053
4084;Basel;BS;47.559662;7.58053
4085;Basel;BS;47.559662;7.58053
4086;Basel;BS;47.559662;7.58053
4087;Basel;BS;47.559662;7.58053
4088;Basel;BS;47.559662;7.58053
8081;Zürich;ZH;47.369091;8.53801
1638;Morlon;FR;46.623573;7.086305
4092;Basel SPI AS 22;BS;47.548721;7.58769
4093;Basel SPI AS 23;BS;47.548721;7.58769
1663;Moléson-s-Gruyères;FR;46.577701;7.080487
4094;Basel SPI AS 24;BS;47.559662;7.58053
4095;Basel SPI AS 25;BS;47.559662;7.58053
4096;Basel SPI AS 26;BS;47.559662;7.58053
8901;Urdorf;ZH;47.386626;8.428093
1632;Riaz;FR;46.64227315;7.042434544
1634;La Roche;FR;46.691269;7.158598
1649;Pont-la-Ville;FR;46.700951;7.110024
1635;La Tour-de-Trême;FR;46.625008;7.058629515
1636;Broc;FR;46.60033394;7.119298332
3041;Bern;BE;46.991879;7.39928
6008;Luzern;LU;47.049545;8.304375
4041;Basel;BS;47.559662;7.58053
1637;Charmey;FR;46.598926;7.199832
9489;Vaduz;FL;47.1410759;9.5214817
4551;Derendingen;SO;47.200335;7.59006
1661;Le Pâquier FR;FR;46.591326;7.03636
1665;Estavannens;FR;46.573161;7.099881025
1667;Enney;FR;46.572411;7.083570437
8109;Kloster Fahr;AG;47.40868;8.43868
6346;Baar 3;ZG;30.923941;109.378487
3085;Wabern Weihnachten;BE;46.9288883;7.4513849
1919;Martigny Mutuel;VS;46.101372;7.07291
8096;Zürich IBRS local;ZH;47.377041;8.53951
4808;Zofingen PF;AG;47.28862;7.94631
4807;Zofingen PF;AG;47.28862;7.94631
9210;Gossau SG VDS;SG;47.41441;9.25495
1311;Eclépens DMIP;VD;46.651089;6.52899
4611;Härkingen DMIP;SO;47.30904;7.817
8011;Zürich DMIP;ZH;47.377041;8.53951
8060;Zürich Flughafen;ZH;47.3461;8.51975
1678;Siviriez;FR;46.65219333;6.886285108
1679;Villaraboud;FR;46.659577;6.911987
1676;Chavannes-Forts;FR;46.659914;6.895357
1677;Prez-vers-Siviriez;FR;46.638405;6.87385
6333;Hünenberg See;ZG;47.175838;8.42705
4621;Härkingen DSAG;SO;47.30904;7.817
4809;Zofingen PF;AG;47.28862;7.94631
4810;Zofingen PF GLKB;AG;47.28862;7.94631
8059;Zürich 59 EO;ZH;47.3690239;8.5380326
1696;Vuisternens-en-Ogoz;FR;46.704202;7.055859
1684;Mézières FR;FR;46.683134;6.894757
1685;Villariaz;FR;46.664546;6.940853
1689;Le Châtelard;FR;46.675505;6.989103
1692;Massonnens;FR;46.694908;6.971642
1612;Ecoteaux;VD;46.544434;6.854078
1613;Maracon;VD;46.553065;6.878638
1611;Le Crêt-p-Semsales;FR;46.6;6.93333
1699;Bouloz;FR;46.598417;6.869561699
1702;Fribourg;FR;46.80418039;7.159743642
1704;Fribourg;FR;46.80418039;7.159743642
1705;Fribourg;FR;46.80418039;7.159743642
1706;Fribourg;FR;46.803746;7.153683
1707;Fribourg;FR;46.80418039;7.159743642
1708;Fribourg;FR;46.803746;7.153683
1763;Granges-Paccot;FR;46.82370815;7.148359096
1701;Fribourg;FR;46.803746;7.153683
1720;Corminboeuf;FR;46.80210078;7.096245308
1735;Giffers;FR;46.75497929;7.224144046
1736;St.Silvester;FR;46.7364;7.220626
1737;Plasselb;FR;46.71115222;7.243659228
1738;Sangernboden;BE;46.719373;7.34832804
1728;Rossens FR;FR;46.722236;7.089078
1731;Ependes FR;FR;46.072915;7.031874
1732;Arconciel;FR;46.750028;7.120408
1733;Treyvaux;FR;46.72421541;7.143830244
1712;Tafers;FR;46.81631329;7.220978666
1713;St.Antoni;FR;46.8185997;7.28246592
1714;Heitenried;FR;46.83630111;7.302391523
1715;Alterswil;FR;46.792452;7.258036
1717;St.Ursen;FR;46.786473;7.221503
1718;Rechthalten;FR;46.764865;7.245521
1722;Bourguillon;FR;46.800331;7.17596
1725;Posieux;FR;46.760601;7.095301
1746;Prez-vers-Noréaz;FR;46.78585079;7.014549027
1747;Corserey;FR;46.770981;6.98869
1748;Torny;FR;46.77063;6.966834
1749;Middes;FR;46.767654;6.949336
1740;Neyruz FR;FR;46.76518;7.064559
1741;Cottens FR;FR;46.750917;7.036656
1744;Chénens;FR;46.742321;6.997438
1745;Lentigny;FR;46.759065;7.004445
1742;Autigny;FR;46.737294;7.026557
1691;Villarimboud;FR;46.740865;6.963345
2122;Pont-en-Ogoz;FR;46.68589;7.0871
2132;Bas-Intyamon;FR;46.56678;7.08394
5016;Obererlinsbach;SO;47.39589;7.996863387
3844;Santa Maria Val Müstair;GR;46.601139;10.42363
